business_name,street_address,st_num,st_name,city,zip_code,area_code,exchange_code,line_number
Jack in the Box,100 E Holt Ave,100,E Holt Ave,Pomona,91767,818,880,9253
Subway,100 W Broadway,100,W Broadway,Long Beach,90802,323,795,0135
Yoshinoya Beef Bowl,100 W Colorado Blvd,100,W Colorado Blvd,Glendale,91204,323,564,9934
Jack in the Box,100 W Duarte Rd,100,W Duarte Rd,Monrovia,91016,661,273,8261
McDonald's,1000 E 4th St,1000,E 4th St,Long Beach,90802,661,948,4119
Subway,1000 E Washington Blvd,1000,E Washington Blvd,Los Angeles,90021,310,609,3303
Pizza Hut,1000 N La Brea Ave,1000,N La Brea Ave,Inglewood,90302,818,509,9555
Jack in the Box,1000 W Rosecrans Ave,1000,W Rosecrans Ave,Gardena,90247,323,233,4440
Jack in the Box,1000 W Slauson Ave,1000,W Slauson Ave,Los Angeles,90044,626,279,7549
Melo Burgers,10003 S Inglewood Ave,10003,S Inglewood Ave,Inglewood,90304,310,672,3164
Master Burger,1001 S Broadway,1001,S Broadway,Los Angeles,90015,323,734,8021
Pizza Hut,1001 W Century Blvd,1001,W Century Blvd,Los Angeles,90044,909,465,9200
Carl's Jr,1001 W Martin Luther King Jr Blvd,1001,W Martin Luther King Jr Blvd,Los Angeles,90037,818,994,2056
Tam's Burgers,10023 S Figueroa St,10023,S Figueroa St,Los Angeles,90003,323,418,0951
Yoshinoya Beef Bowl,10025 Hawthorne Blvd,10025,Hawthorne Blvd,Inglewood,90304,310,516,7863
Jack in the Box,10037 Lakewood Blvd,10037,Lakewood Blvd,Downey,90240,562,695,5651
Yoshinoya Beef Bowl,1004 W Slauson Ave,1004,W Slauson Ave,Los Angeles,90044,323,931,9972
El Pollo Loco,1006 W Arrow Hwy,1006,W Arrow Hwy,San Dimas,91773,310,444,0010
Domino's Pizza,1007 E Avenue J,1007,E Avenue J,Lancaster,93535,818,347,6600
Popeyes Chicken,1008 Long Beach Blvd,1008,Long Beach Blvd,Long Beach,90813,818,438,5202
Yoshinoya Beef Bowl,101 E Carson St,101,E Carson St,Carson,90745,626,442,4277
El Pollo Loco,101 E Compton Blvd,101,E Compton Blvd,Compton,90220,562,422,5050
El Pollo Loco,101 E Manchester Blvd,101,E Manchester Blvd,Los Angeles,90003,310,834,1000
Jack in the Box,1010 W Pacific Coast Hwy,1010,W Pacific Coast Hwy,Wilmington,90744,323,820,1865
Subway,1013 S Alvarado St,1013,S Alvarado St,Los Angeles,90006,310,675,4070
Pizza Hut,1014 W Martin Luther King Jr Blvd,1014,W Martin Luther King Jr Blvd,Los Angeles,90037,310,219,3000
Subway,1018 N Vermont Ave,1018,N Vermont Ave,Los Angeles,90029,562,698,7545
Watts Burgers,1023 S Central Ave,1023,S Central Ave,Los Angeles,90002,323,437,6636
Pizza Hut,10231 Reseda Blvd,10231,Reseda Blvd,Northridge,91324,818,241,1900
Louisiana Famous Fried Chicken,1030 W Martin Luther King Jr Blvd,1030,Martin Luther King Jr Blvd,Los Angeles,90037,323,296,8859
Subway,10301 Artesia Blvd,10301,Artesia Blvd,Bellflower,90706,818,838,3532
Jack in the Box,10307 S Central Ave,10307,S Central Ave,Los Angeles,90002,909,595,9856
Subway,10317 S Avalon Blvd,10317,S Avalon Blvd,Los Angeles,90003,626,851,9200
Subway,1032 Martin Luther King Jr Blvd,1032,Martin Luther King Jr Blvd,Los Angeles,90037,626,303,2320
Pizza Hut,10365 Laurel Canyon Blvd,10365,Laurel Canyon Blvd,Pacoima,91331,661,513,0600
Carl's Jr,10409 Whittier Blvd,10409,Whittier Blvd,Whittier,90606,818,368,5177
Subway,1042 E Avenue J,1042,E Avenue J,Lancaster,93535,213,765,9579
Louisiana Famous Fried Chicken,1043 E Avenue J,1043,E Avenue J,Lancaster,93535,562,234,3513
City Hall Market/Restaurant,1043 S Palos Verdes,1043,S Palos Verdes,San Pedro,90731,562,650,2548
Jack in the Box,1052 N Grand Ave,1052,N Grand Ave,Covina,91724,310,518,3025
Kimbob & Ketta's Louisiana Snoballs,10522 S Vermont Ave,10522,S Vermont Ave,Los Angeles,90044,323,754,0737
Subway,10533 Garvey Ave,10533,Garvey Ave,El Monte,91733,323,661,3800
Yoshinoya Beef Bowl,10534 Garvey Ave,10534,Garvey Ave,El Monte,91733,310,527,6060
Dickey's Barbecue Pit,1056 W Avenue K,1056,W Avenue K,Lancaster,93534,310,868,1444
Kentucky Fried Chicken,1057 N Grand Ave,1057,N Grand Ave,Covina,91724,323,758,3544
Subway,10597 W Pico Blvd,10597,W Pico Blvd,Los Angeles,90064,310,543,2444
El Pollo Loco,106 S Grand Ave,106,S Grand Ave,Covina,91724,213,383,3351
Subway,10610 Ventura Blvd,10610,Ventura Blvd,Studio City,91604,818,291,0805
Del Taco,10644 Alondra Blvd,10644,Alondra Blvd,Norwalk,90650,310,371,0167
El Pollo Loco,10651 Balboa Blvd,10651,Balboa Blvd,Granada Hills,91344,818,995,7361
Domino's Pizza,10652 Riverside Dr,10652,Riverside Dr,North Hollywood,91602,626,912,1130
Subway,10680 Balboa Blvd,10680,Balboa Blvd,Granada Hills,91344,323,954,7129
Jack in the Box,10699 E Valley Blvd,10699,E Valley Blvd,El Monte,91731,562,929,0132
Denny's,10700 Jefferson Blvd,10700,Jefferson Blvd,Culver City,90230,562,908,2390
Jack in the Box,10701 Venice Blvd,10701,Venice Blvd,Los Angeles,90034,909,595,1414
Pizza Hut,10719 Sepulveda Blvd,10719,Sepulveda Blvd,Mission Hills,91345,310,329,9100
Express Burger,10727 S Central Ave,10727,S Central Ave,Los Angeles,90059,323,566,1626
Domino's Pizza,1073 N Hacienda Blvd,1073,N Hacienda Blvd,La Puente,91744,818,759,0000
La Pizza Loca,10731 Hawthorne Blvd,10731,Hawthorne Blvd,Inglewood,90304,818,503,0600
Yoshinoya Beef Bowl,1075 N Western Ave,1075,N Western Ave,Los Angeles,90038,909,591,3183
Chabelita's Restaurant,10767 San Fernando Rd,10767,San Fernando Rd,Pacoima,91331,818,359,1514
Pizza Hut,10780 Jefferson Ave,10780,Jefferson Ave,Culver City,90230,562,863,4466
Jack in the Box,108 N Garfield Ave,108,N Garfield Ave,Montebello,90640,909,629,6539
Domino's Pizza,10807 Beverly Blvd,10807,Beverly Blvd,Whittier,90601,310,544,1445
Hungry Boy Burgers,10810 Norwalk Blvd,10810,Norwalk Blvd,Santa Fe Springs,90670,562,944,1552
Vallarta Supermarket,10859 Oxnard St,10859,Oxnard St,North Hollywood,91606,818,509,2932
Kentucky Fried Chicken,10865 Sepulveda Blvd,10865,Sepulveda Blvd,Mission Hills,91345,562,926,1914
Jack in the Box,1090 Foothill Blvd,1090,Foothill Blvd,La Verne,91750,818,365,1916
Kentucky Fried Chicken,10905 Imperial Hwy,10905,Imperial Hwy,Norwalk,90650,562,633,9125
Subway,10921 Atlantic Ave,10921,Atlantic Ave,Lynwood,90262,323,939,2792
Kentucky Fried Chicken,10937 Alondra Blvd,10937,Alondra Blvd,Norwalk,90650,562,466,0060
Subway,10942 Magnolia Blvd,10942,Magnolia Blvd,North Hollywood,91601,310,536,9527
El Pollo Loco,10944-46 Magnolia Blvd,10944,Magnolia Blvd,North Hollywood,91601,626,913,2928
Domino's Pizza,10948 E Imperial Hwy,10948,E Imperial Hwy,Norwalk,90650,661,265,0955
Vallarta Supermarket,10950 Sherman Way,10950,Sherman Way,Burbank,91505,661,974,7002
Subway,1096 Rosecrans Ave,1096,Rosecrans Ave,Gardena,90247,310,764,1771
RC Burgers,10961 Firestone Blvd,10961,Firestone Blvd,Norwalk,90650,562,929,4699
Jack in the Box,10967 Santa Monica Blvd,10967,Santa Monica Blvd,Los Angeles,90025,562,868,5677
Subway,10970 Sherman Way,10970,Sherman Way,Burbank,91505,323,735,6962
Fatburger & Buffalo's Express,10970 Sherman Way,10970,Sherman Way,Burbank,91505,818,565,5656
Jack in the Box,1099 W Artesia Blvd,1099,W Artesia Blvd,Gardena,90247,909,620,5896
Subway,110 N Brand Blvd,110,N Brand Blvd,Glendale,91203,323,221,5200
Pizza Hut,11006 E Rosecrans Ave,11006,E Rosecrans Ave,Norwalk,90650,562,591,2333
Baby Brother Pizza,11007 Lower Azusa Rd,11007,Lower Azusa Rd,El Monte,91731,626,350,6100
Jack in the Box,11010 W Pico Blvd,11010,W Pico Blvd,Los Angeles,90064,562,408,4951
Subway,11050 Prairie Ave,11050,Prairie Ave,Inglewood,90301,310,329,8458
Playa Las Tunas Restaurant,1107 S Alvarado St,1107,S Alvarado St,Los Angeles,90006,213,365,8504
Jack in the Box,111 E 223rd St,111,E 223rd St,Carson,90745,562,941,6480
Jack in the Box,111 E 223rd St,111,E 223rd St,Carson,90747,310,835,5308
El Pollo Loco,111 E Carson St,111,E Carson St,Carson,90745,562,531,0476
Subway,11100 Sepulveda Blvd,11100,Sepulveda Blvd,Mission Hills,91345,562,599,3900
LA Harbor College Campus Cafeteria,1111 Figueroa Pl,1111,Figueroa Pl,Wilmington,90744,310,233,4051
Subway,1111 N Fairfax Ave,1111,N Fairfax Ave,West Hollywood,90046,562,804,7212
Subway,1111 W Pacific Coast Hwy,1111,W Pacific Coast Hwy,Harbor City,90710,310,674,7827
Good Day Donuts & Mini Mart,11110 Sepulveda Blvd,11110,Sepulveda Blvd,Mission Hills,91345,818,365,7409
Pizza Hut,11115 Crenshaw Blvd,11115,Crenshaw Blvd,Inglewood,90303,626,962,8300
El Pollo Loco,11118 Long Beach Blvd,11118,Long Beach Blvd,Lynwood,90262,661,265,1615
Subway,11123 Long Beach Blvd,11123,Long Beach Blvd,Lynwood,90262,818,677,2669
Pizza Hut,11146 Palms Ave,11146,Palms Ave,Los Angeles,90034,323,771,4000
Jack in the Box,11201 Long Beach Blvd,11201,Long Beach Blvd,Lynwood,90262,562,806,7031
Jack in the Box,11216 Tampa Ave,11216,Tampa Ave,Northridge,91326,310,538,3149
Subway,11220 Laurel Canyon Blvd,11220,Laurel Canyon Blvd,Mission Hills,91345,323,299,7991
Carl's Jr,11224 S Western Ave,11224,S Western Ave,Los Angeles,90047,818,781,6101
Carl's Jr,1124 W Glenoaks Blvd,1124,W Glenoaks Blvd,Glendale,91202,818,764,5888
Doublz,11242 Washington Blvd,11242,Washington Blvd,Whittier,90606,323,887,7111
El Pollo Loco,1125 Truman St,1125,Truman St,San Fernando,91340,323,751,1556
Jack in the Box,1127 W Manchester Blvd,1127,W Manchester Blvd,Inglewood,90301,323,564,7156
Subway,11275 Santa Monica Blvd,11275,Santa Monica Blvd,Los Angeles,90025,310,327,3736
Kentucky Fried Chicken,1128 Huntington Dr,1128,Huntington Dr,Duarte,91010,310,835,0012
Cypress Best Burger,1130 E Walnut St,1130,E Walnut St,Pasadena,91106,626,644,4058
Subway,1130 Peck Rd,1130,Peck Rd,South El Monte,91733,353,301,9601
Yoshinoya Beef Bowl,1130 S Glendora Ave,1130,S Glendora Ave,West Covina,91790,213,627,7649
Jack in the Box,11303 Washington Blvd,11303,Washington Blvd,Whittier,90606,310,212,0967
Jack in the Box,11306 Crenshaw Blvd,11306,Crenshaw Blvd,Inglewood,90303,562,633,6232
Jack in the Box,1131 Colorado Blvd,1131,Colorado Blvd,Glendale,91205,310,390,2891
A & T Burgers,11318 Avalon Blvd,11318,Avalon Blvd,Los Angeles,90061,323,754,0709
El Pollo Loco,11331 Hawthorne Blvd,11331,Hawthorne Blvd,Inglewood,90304,626,338,7026
Subway,11335 Thienes Ave,11335,Thienes Ave,South El Monte,90733,562,212,1450
Subway,11335 Thienes Ave,11335,Thienes Ave,South El Monte,91733,562,531,9909
Subway,11341 Moorpark St,11341,Moorpark St,North Hollywood,91602,818,244,0411
Jack in the Box,1135 N Mission Rd,1135,N Mission Rd,Los Angeles,90033,310,830,2621
Jack in the Box,11353 Firestone Blvd,11353,Firestone Blvd,Norwalk,90650,818,956,0470
Panda Express,1139 E Colorado Blvd,1139,E Colorado Blvd,Glendale,91205,626,683,9968
Subway,1139 S Hill St,1139,S Hill St,Los Angeles,90015,626,279,1860
Jack in the Box,11390 Atlantic Blvd,11390,Atlantic Blvd,Lynwood,90262,323,771,9439
Domino's Pizza,11391 Long Beach Blvd,11391,Long Beach Blvd,Lynwood,90262,213,746,9999
Wing Stop,114 N Gaffey St,114,N Gaffey St,San Pedro,90731,626,536,2733
Jack in the Box,11400 S Figueroa St,11400,S Figueroa St,Los Angeles,90061,310,532,3528
El Pollo Loco,1141 W Pacific Coast Hwy,1141,W Pacific Coast Hwy,Harbor City,90710,323,757,8229
Jack in the Box,11442 Telegraph Rd,11442,Telegraph Rd,Santa Fe Springs,90670,562,439,6798
Kentucky Fried Chicken,1148 W Manchester Ave,1148,W Manchester Ave,Los Angeles,90044,818,882,1160
Jack in the Box,115 N Central Ave,115,N Central Ave,Compton,90220,818,887,9339
El Pollo Loco,1150 W Alameda St,1150,W Alameda St,Burbank,91506,818,786,2516
Popeyes Chicken,1150 W Rosecrans Ave,1150,W Rosecrans Ave,Gardena,90247,323,294,8116
Jack in the Box,11501 E Carson St,11501,E Carson St,Lakewood,90715,323,525,0868
Michael's Super Burgers,11506 Slauson Ave,11506,Slauson Ave,Whittier,90606,562,699,8783
Carl's Jr,11509 Laurel Canyon Blvd,11509,Laurel Canyon Blvd,San Fernando,91340,818,360,6125
Kentucky Fried Chicken,11523 Hawthorne Blvd,11523,Hawthorne Blvd,Hawthorne,90250,562,599,2547
Yoshinoya Beef Bowl,11536 Telegraph Rd,11536,Telegraph Rd,Santa Fe Springs,90670,626,858,0801
Pizza Hut,11550 Whittier Blvd,11550,Whittier Blvd,Whittier,90601,562,864,5226
Domino's Pizza,1158 E 7th St,1158,E 7th St,Long Beach,90813,626,448,3030
Tam's Burgers,1158 E Anaheim St,1158,E Anaheim St,Long Beach,90813,562,591,5951
Jack in the Box,1159 S Hacienda Blvd,1159,S Hacienda Blvd,Hacienda Heights,91745,818,957,1963
Dickey's Barbecue Pit,116 E Compton Blvd,116,E Compton Blvd,Compton,90220,661,949,8888
Subway,1160 E 7th St,1160,E 7th St,Long Beach,90802,310,412,2720
El Pollo Loco,11601 Carson St,11601,Carson St,Lakewood,90715,626,339,7337
Everytable,11601 Wilshire Blvd,11601,Wilshire Blvd,Los Angeles,90049,323,426,2820
Hawkins House of Burgers,11603 Slater St,11603,Slater St,Los Angeles,90059,323,563,1129
El Pollo Loco,11624 Washington Blvd,11624,Washington Blvd,Whittier,90606,323,464,0860
Subway,11657 Sherman Way,11657,Sherman Way,North Hollywood,91605,818,953,2972
Tam's Burgers,11700 Rosecrans Ave,11700,Rosecrans Ave,Norwalk,90650,562,864,3373
Pizza Hut,1171 E Market St,1171,E Market St,Long Beach,90805,562,699,4000
Pizza Hut,11710 Wilmington Ave,11710,Wilmington Ave,Los Angeles,90059,626,912,9292
Subway,11729 Imperial Hwy,11729,Imperial Hwy,Norwalk,90650,626,967,4040
Pizza Hut,1173 W Carson St,1173,W Carson St,Torrance,90502,909,593,2000
Rally's Hamburger,11750 E Imperial Hwy,11750,E Imperial Hwy,Norwalk,90650,562,807,0036
Jack in the Box,11780 Ramona Blvd,11780,Ramona Blvd,El Monte,91732,310,831,3509
Subway,11782 Firestone Blvd,11782,Firestone Blvd,Norwalk,90650,626,967,4249
JN's Original BBQ Pit House,1180 N White Ave,1180,N White Ave,Pomona,91768,909,623,7206
McDonald's,11800 Wilmington Ave,11800,Wilmington Ave,Los Angeles,90059,323,722,5535
Subway,11808 Hawthorne Blvd,11808,Hawthorne Blvd,Hawthorne,90250,562,531,4947
Subway,11812 Wilmington Ave,11812,Wilmington Ave,Los Angeles,90059,562,218,4444
Subway,11819 Wilshire Blvd,11819,Wilshire Blvd,Los Angeles,90025,323,721,8200
Kentucky Fried Chicken,11864 Wilmington Ave,11864,Wilmington Ave,Los Angeles,90059,661,272,2883
El Pollo Loco,11870 Santa Monica Blvd,11870,Santa Monica Blvd,Los Angeles,90025,562,35,9227
Subway,11878 Balboa Blvd,11878,Balboa Blvd,Granada Hills,91344,562,864,5242
Denny's,11891 E Whittier Blvd,11891,E Whittier Blvd,Whittier,90601,310,559,5351
Jack in the Box,1190 E Pacific Coast Hwy,1190,E Pacific Coast Hwy,Long Beach,90806,323,834,0199
Carl's Jr,1190 W Foothill Blvd,1190,W Foothill Blvd,Azusa,91702,323,724,5488
Pizza Hut,11910 E Garvey Ave,11910,E Garvey Ave,El Monte,91732,661,273,5877
Subway,11916 Aviation Blvd,11916,Aviation Blvd,Inglewood,90304,562,860,5544
El Pollo Loco,11928 Garvey Ave,11928,Garvey Ave,El Monte,91732,818,846,4022
Subway,1195 W Foothill Blvd,1195,W Foothill Blvd,Azusa,91702,562,866,4415
Subway,11990 Garvey Ave,11990,Garvey Ave,El Monte,91732,562,498,8884
Subway,120 N San Gabriel Blvd,120,N San Gabriel Blvd,San Gabriel,91775,310,885,3200
Pizza Hut,1200 E 4th St,1200,E 4th St,Long Beach,90802,661,285,9595
Burger King,1200 E Colorado St,1200,E Colorado St,Glendale,91205,213,748,2821
McDonald's,1200 W Ave K,1200,W Ave K,Lancaster,93534,661,945,8615
Jack in the Box,1200 W Glenoaks Blvd,1200,W Glenoaks Blvd,Glendale,91201,562,943,2834
El Pollo Loco,1200 W Manchester Blvd,1200,W Manchester Blvd,Inglewood,90301,323,588,5009
Taco Pete,12007 S Central Ave,12007,S Central Ave,Los Angeles,90059,323,569,5164
Yoshinoya Beef Bowl,1201 S Soto St,1201,S Soto St,Los Angeles,90023,818,361,0122
Burger King,1202 Firestone Blvd,1202,Firestone Blvd,Los Angeles,90002,213,507,4153
Burger King,1202 W Avenue I,1202,W Avenue I,Lancaster,93534,323,754,1373
Kentucky Fried Chicken,12044 Roscoe Blvd,12044,Roscoe Blvd,North Hollywood,91605,661,251,6035
Subway,1205 W 3rd St,1205,W 3rd St,Los Angeles,90017,562,984,5355
Valentino's Pizza,12050 Centralia Rd,12050,Centralia Rd,Hawaiian Gardens,90716,562,860,1102
Jack in the Box,12060 Rosecrans Ave,12060,Rosecrans Ave,Norwalk,90650,626,810,7963
Subway,1209 S Soto St,1209,S Soto St,Los Angeles,90023,562,804,0696
Pizza Hut,121 E Foothill Blvd,121,E Foothill Blvd,Arcadia,91006,310,635,5900
Subway,1210 W Avenue K,1210,W Avenue K,Lancaster,93534,562,634,2469
BBQ Express,12100 Valley Blvd,12100,Valley Blvd,El Monte,91732,626,444,6227
El Pollo Loco,1212 E Huntington Dr,1212,E Huntington Dr,Duarte,91010,818,773,9603
El Pollo Loco,1212 N Bellflower Blvd,1212,N Bellflower Blvd,Long Beach,90815,818,765,7603
Pizza Hut,1212 N San Fernando Rd,1212,N San Fernando Rd,Burbank,91504,310,978,8100
Pizza Hut,12125 Imperial Hwy,12125,Imperial Hwy,Norwalk,90650,323,560,5500
Yoshinoya Beef Bowl,1215 N San Fernando Blvd,1215,N San Fernando Blvd,Burbank,91504,213,748,1908
Bravo Burger,1215 N White Ave,1215,N White Ave,Pomona,91768,909,622,0855
Jack in the Box,12150 Carson St,12150,Carson St,Hawaiian Gardens,90716,661,947,2729
Subway,1219 N Grand Ave,1219,N Grand Ave,Walnut,91789,323,800,7691
Subway,1219 N Grand Ave,1219,N Grand Ave,Walnut,91789,818,837,4690
Pizza Hut,1219 N Atlantic Blvd,1219,N Atlantic Blvd,Alhambra,91801,818,769,2400
Bobo's Hamburger,1220 E Firestone Blvd,1220,E Firestone Blvd,Los Angeles,90001,323,582,9978
El Pollo Loco,1220 S Diamond Bar Blvd,1220,S Diamond Bar Blvd,Diamond Bar,91765,323,981,9196
Pizza Hut,12203 Hawthorne Blvd,12203,Hawthorne Blvd,Hawthorne,90250,310,320,1590
Pizza Hut,12217 Santa Monica Blvd,12217,Santa Monica Blvd,Los Angeles,90025,951,427,8013
Pizza Hut,12218 La Mirada Blvd,12218,La Mirada Blvd,La Mirada,90638,626,339,5000
Domino's Pizza,12237 Santa Monica Blvd,12237,Santa Monica Blvd,Los Angeles,90025,818,841,3337
Pizza Hut,1224 S Atlantic Blvd,1224,S Atlantic Blvd,Alhambra,91801,562,809,8811
El Pollo Loco,1224 S Soto St,1224,S Soto St,Los Angeles,90023,310,677,7182
Subway,1225 Huntington Dr,1225,Huntington Dr,Duarte,91010,323,521,1957
El Pollo Loco,123 E Holt Blvd,123,E Holt Blvd,Pomona,91767,310,644,1956
Subway,12301 Imperial Hwy,12301,Imperial Hwy,Norwalk,90650,213,250,2345
Carl's Jr,1231 Avenida Cesar Chavez,1231,Avenida Cesar Chavez,Monterey Park,91754,626,452,0587
Jack in the Box,1231 Whittier Blvd,1231,Whittier Blvd,La Habra,90631,310,522,5696
Subway,1233 W Rancho Vista Blvd,1233,W Rancho Vista Blvd,Palmdale,93551,310,558,4222
Subway,1234 Wilshire Blvd,1234,Wilshire Blvd,Los Angeles,90017,562,461,0171
Carl's Jr,12358 Washington Blvd,12358,Washington Blvd,Whittier,90606,626,330,7118
Subway,124 E Magnolia Blvd,124,E Magnolia Blvd,Burbank,91502,661,265,1690
Jack in the Box,12403 Washington Pl,12403,Washington Pl,Los Angeles,90066,323,737,0452
Pizza Hut,1241 S Grand Ave,1241,S Grand Ave,Diamond Bar,91765,310,419,4900
Jack in the Box,1243 N Highland Ave,1243,N Highland Ave,Los Angeles,90038,818,909,0066
Kentucky Fried Chicken,1244 S La Brea Ave,1244,S La Brea Ave,Los Angeles,90019,818,767,2025
Domino's Pizza,1244 W Glenoaks Blvd,1244,W Glenoaks Blvd,Glendale,91502,562,945,7691
Pizza Hut,12447 Victory Blvd,12447,Victory Blvd,North Hollywood,91606,323,467,4466
Jack in the Box,1245 N Grand Ave,1245,N Grand Ave,Walnut,91789,323,751,5074
El Pollo Loco,12453 Burbank Blvd,12453,Burbank Blvd,North Hollywood,91607,562,862,7575
El Pollo Loco,12453 Lankershim Blvd,12453,Lankershim Blvd,North Hollywood,91606,323,564,5042
Subway,12464 Venice Blvd,12464,Venice Blvd,Los Angeles,90066,562,864,8333
Subway,1251 E Olympic Blvd,1251,E Olympic Blvd,Los Angeles,90021,562,408,1297
Subway,12548 Washington Blvd,12548,Washington Blvd,Whittier,90602,661,947,1410
Yoshinoya Beef Bowl,12555 Alondra Dr,12555,Alondra Dr,Norwalk,90650,323,217,2188
Jack in the Box,126 N Azusa Ave,126,N Azusa Ave,Azusa,91746,909,628,5010
Kentucky Fried Chicken,126 S Vermont Ave,126,S Vermont Ave,Los Angeles,90004,310,373,1222
El Pollo Loco,1260 N Vine St,1260,N Vine St,Los Angeles,90028,310,390,8097
El Pollo Loco,1260 N Vine St,1260,N Vine St,Los Angeles,90038,310,838,8803
Pizza Hut,12602 Del Amo Blvd,12602,Del Amo Blvd,Lakewood,90715,661,298,4000
Jack in the Box,12603 Norwalk Blvd,12603,Norwalk Blvd,Norwalk,90650,714,856,9382
Subway,12608 Del Amo Blvd,12608,Del Amo Blvd,Lakewood,90715,213,221,1286
Pizza Hut,1261 S Central Ave,1261,S Central Ave,Glendale,91204,562,866,3000
El Pollo Loco,12643 Sherman Way,12643,Sherman Way,North Hollywood,91605,323,660,7900
Carl's Jr,12653 Sherman Way,12653,Sherman Way,North Hollywood,91605,626,919,1725
Popeyes Chicken,12659 Glenoaks Blvd,12659,Glenoaks Blvd,Sylmar,91342,818,367,5110
Yoshinoya Beef Bowl,1269 N Grand Ave,1269,N Grand Ave,Walnut,91789,818,787,0533
Pizza Hut,1269 N Lake Ave,1269,N Lake Ave,Pasadena,91104,562,422,1313
Subway,1270 S La Cienega Blvd,1270,S La Cienega Blvd,Los Angeles,90035,626,458,5543
Jack in the Box,12735 S Main St,12735,S Main St,Los Angeles,90061,310,212,0972
Burger King,12736 S Avalon Blvd,12736,S Avalon Blvd,Los Angeles,90061,562,498,6331
Pizza Hut,12737 Glenoaks Blvd,12737,Glenoaks Blvd,Sylmar,91342,562,438,6161
Wing Stop,12745 Van Nuys Blvd,12745,Van Nuys Blvd,Pacoima,91331,818,897,9464
Pizza Hut,1275 S La Brea Ave,1275,S La Brea Ave,Inglewood,90301,818,898,3737
Subway,12770-B Hawthorne Blvd,12770,Hawthorne Blvd,Hawthorne,90250,562,810,2535
Burger King,12781 Van Nuys Blvd,12781,Van Nuys Blvd,Pacoima,91331,323,721,1981
Wing Stop,1279 N Lake Ave,1279,N Lake Ave,Pasadena,91004,951,284,7404
Bonnie B's Smokin BBQ,1280 N Lake Ave,1280,N Lake Ave,Pasadena,91104,626,794,0132
El Pollo Loco,12800 Avalon Blvd,12800,Avalon Blvd,Los Angeles,90061,213,413,1811
Rally's Hamburger,12812 S Hawthorne Blvd,12812,S Hawthorne Blvd,Hawthorne,90250,323,299,8510
Fabulous Grill,12829 Crenshaw Blvd,12829,Crenshaw Blvd,Hawthorne,90250,310,830,3580
Yoshinoya Beef Bowl,12850 Sherman Way,12850,Sherman Way,North Hollywood,91605,562,272,4531
Burger King,12853 Victory Blvd,12853,Victory Blvd,North Hollywood,91606,213,674,7762
Jack in the Box,12900 Sherman Way,12900,Sherman Way,North Hollywood,91605,626,331,8301
Domino's Pizza,12901 Sherman Way,12901,Sherman Way,North Hollywood,91605,323,888,1555
Yoshinoya Beef Bowl,12902 Foothill Blvd,12902,Foothill Blvd,Sylmar,91342,213,483,2455
El Pollo Loco,12930 Foothill Blvd,12930,Foothill Blvd,San Fernando,91342,909,596,3206
Kentucky Fried Chicken,12959 Rosecrans Ave,12959,Rosecrans Ave,Norwalk,90650,562,498,0446
Pacific Dining - East LA College,1301 Avenida Cesar Chavez,1301,Avenida Cesar Chavez,Monterey Park,91754,323,265,8650
Subway,1301 E Rosecrans Ave,1301,E Rosecrans Ave,Compton,90221,909,621,6840
Carl's Jr,1302 Huntington Dr,1302,Huntington Dr,Duarte,91010,626,303,6319
Wendy's,1305 N Vermont Ave,1305,N Vermont Ave,Los Angeles,90027,818,882,1530
Vallarta Supermarket,13051 Victory Blvd,13051,Victory Blvd,North Hollywood,91606,818,781,9007
Subway,1307 Long Beach Blvd,1307,Long Beach Blvd,Long Beach,90813,323,566,1722
McDonald's,131 E Palmdale Blvd,131,E Palmdale Blvd,Palmdale,93550,323,564,3448
Kentucky Fried Chicken,13106 Whittier Blvd,13106,Whittier Blvd,Whittier,90602,213,748,5632
Dino's Burgers,13128 Inglewood Ave,13128,Inglewood Ave,Hawthorne,90250,310,219,4098
Carl's Jr,13151 Crossroads Pkwy S,13151,Crossroads Pkwy S,City of Industry,91746,818,243,4084
Subway,132 W Anaheim St,132,W Anaheim St,Wilmington,90744,213,386,5222
Fantasy Burgers,1320 E South St,1320,E South St,Long Beach,90805,562,422,2313
Dino's Charbroiled Burgers,13200 Valley Blvd,13200,Valley Blvd,La Puente,91746,626,968,2713
Del Taco,13204 Imperial Hwy,13204,Imperial Hwy,Santa Fe Springs,90670,626,965,4500
Domino's Pizza,13205 Whittier Blvd,13205,Whittier Blvd,Whittier,90602,562,437,4868
Subway,133 S Hacienda Blvd,133,S Hacienda Blvd,City of Industry,91745,310,763,8000
Lucy's Bakery,1330 W Washington Blvd,1330,W Washington Blvd,Los Angeles,90007,213,747,8919
Subway,13345 Telegraph Rd,13345,Telegraph Rd,Santa Fe Springs,90605,661,274,1355
Waba Grill,1335 Long Beach Blvd,1335,Long Beach Blvd,Long Beach,90803,909,397,4226
Jack in the Box,1335 N Dudley St,1335,N Dudley St,Pomona,91766,323,585,2125
Jack in the Box,1335 S Soto St,1335,S Soto St,Los Angeles,90023,310,522,0725
Jack in the Box,1335 S Soto St,1335,S Soto St,Los Angeles,90063,626,303,0695
LA Mission College,13356 Eldridge Ave,13356,Eldridge Ave,Sylmar,91342,818,364,7772
El Pollo Loco,13357 Riverside Dr,13357,Riverside Dr,Sherman Oaks,91423,626,965,8119
Pizza Hut,1336 Rosecrans Ave,1336,Rosecrans Ave,Gardena,90247,626,448,8300
Jack in the Box,13361 Crossroads Pkwy S,13361,Crossroads Pkwy S,City of Industry,91746,323,465,3617
Jack in the Box,13400 Telegraph Rd,13400,Telegraph Rd,Santa Fe Springs,90670,562,494,4799
Jack in the Box,13402 Imperial Hwy,13402,Imperial Hwy,Santa Fe Springs,90670,818,247,0717
El Pollo Loco,1341 N Hacienda Blvd,1341,N Hacienda Blvd,La Puente,91744,310,530,0534
El Pollo Loco,1343 S Nogales St,1343,S Nogales St,Rowland Heights,91748,818,365,2840
Bobo's Hamburgers,13433 Van Nuys Blvd,13433,Van Nuys Blvd,Pacoima,91331,818,890,2603
Subway,1347 W Florence Ave,1347,W Florence Ave,Los Angeles,90044,323,232,2211
Captain Tony's Pizza & Pasta,135 E Avenue J,135,E Avenue J,Lancaster,93535,661,942,3000
Jack in the Box,13510 S Western Ave,13510,S Western Ave,Gardena,90249,661,252,4321
Pizza Hut,13525 Telegraph Rd,13525,Telegraph Rd,Whittier,90605,951,284,7404
Subway,1356 N Avalon Blvd,1356,N Avalon Blvd,Wilmington,90744,562,804,9713
Domino's Pizza,1360 N Avalon Blvd,1360,N Avalon Blvd,Wilmington,90744,323,268,3030
El Pollo Loco,1360 W Imperial Hwy,1360,W Imperial Hwy,Los Angeles,90044,562,426,5006
Jack in the Box,13622 Foothill Blvd,13622,Foothill Blvd,Sylmar,91342,323,735,7124
Orange Delight and Grill,13628 Ventura Blvd,13628,Ventura Blvd,Sherman Oaks,91423,818,788,9896
Jack in the Box,13648 Van Nuys Blvd,13648,Van Nuys Blvd,Pacoima,91331,323,722,2066
Subway,13726 Amar Rd,13726,Amar Rd,La Puente,91746,323,735,7218
Yoshinoya Beef Bowl,13750 Roscoe Blvd,13750,Roscoe Blvd,Panorama City,91402,323,222,9705
El Pollo Loco,1380 N Avalon Blvd,1380,N Avalon Blvd,Wilmington,90744,818,895,1925
Vallarta Supermarket,13820 Foothill Blvd,13820,Foothill Blvd,Sylmar,91342,562,231,5656
Pizza Hut,13926 Ramona Blvd,13926,Ramona Blvd,Baldwin Park,91706,818,244,4477
Domino's Pizza,13931 Van Nuys Blvd,13931,Van Nuys Blvd,Pacoima,91331,818,768,7888
Hot Cazuelas,1395 W Holt Ave,1395,W Holt Ave,Pomona,91768,909,766,8140
Kentucky Fried Chicken,13970 Imperial Hwy,13970,Imperial Hwy,La Mirada,90638,213,483,9412
Carl's Jr,140 E Foothill Blvd,140,E Foothill Blvd,Pomona,91767,818,716,0599
Wing Stop,140 W Anaheim St,140,W Anaheim St,Wilmington,90744,310,558,9464
Carl's Jr,1400 E Rosecrans Ave,1400,E Rosecrans Ave,Compton,90221,818,365,5587
Carl's Jr,1400 Foothill Blvd,1400,Foothill Blvd,La Verne,91750,714,736,8900
Bayou Grille,1400 N La Brea Ave,1400,N La Brea Ave,Inglewood,90302,310,673,0824
Subway,1400 Pacific Coast Hwy,1400,Pacific Coast Hwy,Long Beach,90806,562,396,4250
Subway,1400 W Pico Blvd,1400,W Pico Blvd,Los Angeles,90015,661,949,0424
La Pizza Loca,1401 E Gage Ave,1401,E Gage Ave,Los Angeles,90001,323,231,1288
The Serving Spoon,1403 Centinela Ave,1403,Centinela Ave,Inglewood,90302,310,412,3927
Subway,1404 N Azusa Ave,1404,N Azusa Ave,Covina,91722,310,722,6300
RC Burgers,14041 Pioneer Blvd,14041,Pioneer Blvd,Norwalk,90650,323,564,1383
Carl's Jr,14080 Francisquito Ave,14080,Francisquito Ave,Baldwin Park,91706,626,331,3705
Carl's Jr,141 S Diamond Bar Blvd,141,S Diamond Bar Blvd,Diamond Bar,91765,818,996,1068
Art's Famous Chili Dog,1410 W Florence Ave,1410,W Florence Ave,Los Angeles,90047,818,599,8243
Pizza Hut,1411 Lincoln Blvd,1411,Lincoln Blvd,Venice,90291,323,233,1444
Subway,1411 Lincoln Blvd,1411,Lincoln Blvd,Venice,90291,661,729,5564
Jack in the Box,1415 S Alameda St,1415,S Alameda St,Los Angeles,90021,818,998,4295
La Pizza Loca,14150 Paramount Blvd,14150,Paramount Blvd,Paramount,90723,818,899,6828
McDonald's,1419 W Redondo Beach Blvd,1419,W Redondo Beach Blvd,Gardena,90247,323,581,4267
Yoshinoya Beef Bowl,14225 S Vermont Ave,14225,S Vermont Ave,Gardena,90247,818,240,5561
Kentucky Fried Chicken,1425 Martin Luther King Jr Blvd,1425,Martin Luther King Jr Blvd,Los Angeles,90062,323,583,3201
Kentucky Fried Chicken,1425 S New Ave,1425,S New Ave,Alhambra,91801,310,533,1147
Domino's Pizza,1428 E Colorado Blvd,1428,E Colorado Blvd,Glendale,91205,310,677,1900
Pizza Hut,1428 W Glenoaks Blvd,1428,W Glenoaks Blvd,Glendale,91201,310,473,1133
El Pollo Loco,14300 Prairie Ave,14300,Prairie Ave,Hawthorne,90250,562,494,1343
Jack in the Box,14304 Amar Rd,14304,Amar Rd,La Puente,91744,562,439,8958
Subway,14304 Ocean Gate Ave,14304,Ocean Gate Ave,Hawthorne,90250,323,661,3800
Rally's Hamburgers,14306 Crenshaw Blvd,14306,Crenshaw Blvd,Gardena,90249,310,527,2238
Yoshinoya Beef Bowl,14308 Prairie Ave,14308,Prairie Ave,Hawthorne,90250,213,749,3911
Pizza Hut,14316 E Amar Rd,14316,E Amar Rd,La Puente,91744,818,845,3400
El Pollo Loco,14329 Lakewood Blvd,14329,Lakewood Blvd,Downey,90241,626,967,6450
Pizza Hut,1433 E Route 66,1433,E Route 66,Glendora,91740,661,949,8383
Carl's Jr,14344 Roscoe Blvd,14344,Roscoe Blvd,Panorama City,91402,626,285,2881
Subway,14379 Clark Ave,14379,Clark Ave,Bellflower,90706,323,664,6035
Yoshinoya Beef Bowl,1441 E Colorado Blvd,1441,E Colorado Blvd,Pasadena,91106,626,303,0408
Jack in the Box,1441 W Martin Luther King Jr Blvd,1441,W Martin Luther King Jr Blvd,Los Angeles,90062,818,982,5225
Subway,14417 Ramona Blvd,14417,Ramona Blvd,Baldwin Park,91706,213,471,9141
El Pollo Loco,14429 Roscoe Blvd,14429,Roscoe Blvd,Panorama City,91402,818,767,1257
Jack in the Box,14437 Telegraph Rd,14437,Telegraph Rd,Whittier,90604,213,745,5530
El Pollo Loco,14455 E Ramona Blvd,14455,E Ramona Blvd,Baldwin Park,91706,323,278,9021
El Pollo Loco,1449 E Colorado Blvd,1449,E Colorado Blvd,Pasadena,91106,626,307,4394
Pizza Hut,14500 Nordhoff St,14500,Nordhoff St,Panorama City,91402,626,331,9800
McDonald's,14501 Lakewood Blvd,14501,Lakewood Blvd,Paramount,90723,661,533,6052
Sam's Burgers & Fast Food,14525 Telegraph Rd,14525,Telegraph Rd,La Mirada,90638,562,944,3192
Yoshinoya Beef Bowl,14551 Lakewood Blvd,14551,Lakewood Blvd,Paramount,90723,562,404,9311
Guido's Pizza and Pasta,14556 Polk St,14556,Polk St,Sylmar,91342,818,364,7300
Pizza Hut,1457 E Florence Ave,1457,E Florence Ave,Los Angeles,90001,310,674,7400
Domino's Pizza,14604 Ramona Blvd,14604,Ramona Blvd,Baldwin Park,91706,310,832,4521
Yoshinoya Beef Bowl,1461 S La Cienega Blvd,1461,S La Cienega Blvd,Los Angeles,90035,310,659,4662
Jack in the Box,14611 Dalewood St,14611,Dalewood St,Baldwin Park,91706,323,564,8168
Wendy's,14645 Roscoe Blvd,14645,Roscoe Blvd,Panorama City,91402,818,787,2072
Carl's Jr,1465 E Colorado Blvd,1465,E Colorado Blvd,Pasadena,91106,818,998,0188
Carl's Jr,1471 N Montebello Blvd,1471,N Montebello Blvd,Montebello,90640,562,902,1974
Yoshinoya Beef Bowl,1479 Montebello Blvd,1479,Montebello Blvd,Montebello,90640,818,503,9626
Subway,148 W Sierra Madre Blvd,148,W Sierra Madre Blvd,Sierra Madre,91024,310,827,0322
Pizza Hut,14900 Burbank Blvd,14900,Burbank Blvd,Sherman Oaks,91411,909,596,9444
Golden Bird,14903 S Western Ave,14903,S Western Ave,Gardena,90249,310,715,6774
Tom's Jr,1500 E Slauson Ave,1500,E Slauson Ave,Los Angeles,90011,323,587,3388
Burger King,1501 W 6th St,1501,W 6th St,Los Angeles,90016,818,898,1171
Kentucky Fried Chicken,1501 W 6th St,1501,W 6th St,Los Angeles,90017,323,291,4322
Jack in the Box,15025 Hawthorne Blvd,15025,Hawthorne Blvd,Lawndale,90260,818,841,9689
Wing Stop,1504 W Willow St,1504,W Willow St,Long Beach,90810,562,606,2400
Domino's Pizza,1510 S Gaffey St,1510,S Gaffey St,San Pedro,90731,626,579,3030
Domino's Pizza,15114 Inglewood Ave,15114,Inglewood Ave,Lawndale,90260,818,473,3340
Pizza Hut,1515 W Beverly Blvd,1515,W Beverly Blvd,Montebello,90640,562,944,7700
Subway,15232 Saticoy St,15232,Saticoy St,Van Nuys,91405,310,523,3390
Pizza Hut,153 E Compton Blvd,153,E Compton Blvd,Compton,90220,626,791,0800
El Pollo Loco,15329 Normandie Ave,15329,Normandie Ave,Gardena,90247,310,631,7691
Classic Burger,15342 Crenshaw Blvd,15342,Crenshaw Blvd,Gardena,90249,310,515,1259
Jack in the Box,15342 Roscoe Ave,15342,Roscoe Ave,Panorama City,91402,323,660,5238
Del Taco,15353 Chatsworth St,15353,Chatsworth St,Mission Hills,91345,310,608,2325
Carl's Jr,15360 Whittier Blvd,15360,Whittier Blvd,Whittier,90603,626,201,0064
Popeyes Chicken,154 W Carson St,154,W Carson St,Carson,90745,310,669,8830
Domino's Pizza,1544 W Redondo Beach Blvd,1544,W Redondo Beach Blvd,Gardena,90247,818,882,2200
El Pollo Loco,1545 S Western Ave,1545,S Western Ave,Los Angeles,90019,323,759,7009
Hong Kong Express,155 W Washington Blvd,155,W Washington Blvd,Los Angeles,90015,213,765,3318
Domino's Pizza,15500 S Paramount Blvd,15500,S Paramount Blvd,Paramount,90723,562,594,4506
Subway,1551 Ocean Ave,1551,Ocean Ave,Santa Monica,90401,562,944,7827
World Seafood Market,1554 W Florence Ave,1554,W Florence Ave,Los Angeles,90047,323,753,5897
Pizza Hut,1555 S Western Ave,1555,S Western Ave,Los Angeles,90006,818,771,0800
Twins Smokehouse BBQ,1555 W Willow St,1555,W Willow St,Long Beach,90810,562,427,4800
Burger King,15554 Roscoe Blvd,15554,Roscoe Blvd,Van Nuys,91406,213,484,9803
Subway,156 E Sepulveda Blvd,156,E Sepulveda Blvd,Carson,90745,310,530,8819
Pizza Hut,1562 W Pico Blvd,1562,W Pico Blvd,Los Angeles,90015,818,703,6700
El Pollo Loco,1565 Sepulveda Blvd,1565,Sepulveda Blvd,Torrance,90501,323,937,7171
Pizza Hut,15650 Nordhoff St,15650,Nordhoff St,North Hills,91343,213,746,2900
Jack in the Box,15651 Nordhoff St,15651,Nordhoff St,North Hills,91343,213,483,1768
Yoshinoya Beef Bowl,15685 Valley Blvd,15685,Valley Blvd,City of Industry,91744,310,532,3063
Yoshinoya Beef Bowl,1570 S Western Ave,1570,S Western Ave,Los Angeles,90006,310,397,4357
Wendy's,1575 N Victory Blvd,1575,N Victory Blvd,Burbank,91502,562,776,0204
Subway,15794 Bellflower Blvd,15794,Bellflower Blvd,Bellflower,90706,626,854,1433
Subway,159 E Compton Blvd,159,E Compton Blvd,Compton,90220,661,575,0148
Subway,15900 Crenshaw Blvd,15900,Crenshaw Blvd,Gardena,90249,661,267,2032
Subway,15911 Valley View Blvd,15911,Valley View Blvd,Santa Fe Springs,90670,213,892,0926
Subway,15925 Pioneer Blvd,15925,Pioneer Blvd,Norwalk,90650,213,353,0043
Jack in the Box,15948 Whittier Blvd,15948,Whittier Blvd,Whittier,90603,310,538,3149
Subway,160 E Duarte Rd,160,E Duarte Rd,Arcadia,91006,213,380,3671
Jack in the Box,1600 Arrow Hwy,1600,Arrow Hwy,Irwindale,91706,562,204,0614
Domino's Pizza,1600 W Olive Ave,1600,W Olive Ave,Burbank,91506,626,359,3030
Hall's Krispy Krunchy Chicken,1600 W Slauson Ave,1600,W Slauson Ave,Los Angeles,90043,323,305,3059
Kentucky Fried Chicken,1601 E 7th St,1601,E 7th St,Long Beach,90813,626,579,0374
Golden Seafood Express & Hamburger,1601 E Imperial Hwy,1601,E Imperial Hwy,Los Angeles,90059,323,566,6119
Kentucky Fried Chicken,1601 W Willow St,1601,W Willow St,Long Beach,90810,323,268,1197
Subway,16012 E Arrow Hwy,16012,E Arrow Hwy,Irwindale,91706,626,839,7504
Burger Zone,1603 N Durfee Ave,1603,N Durfee Ave,South El Monte,91733,626,443,8200
Yoshinoya Beef Bowl,1603 Sepulveda Blvd,1603,Sepulveda Blvd,Torrance,90501,323,583,8025
Carnitas Michoacán,1605 S Hoover St,1605,S Hoover St,Los Angeles,90006,213,748,1809
Pizza Hut,161 E Live Oak Ave,161,E Live Oak Ave,Arcadia,91006,213,380,5900
Vallarta Supermarket,16107 Victory Blvd,16107,Victory Blvd,Van Nuys,91406,661,347,7390
Jack in the Box,1615 S Broadway Ave,1615,S Broadway Ave,Los Angeles,90015,626,529,1269
Popeyes Chicken,16159 Parthenia St,16159,Parthenia St,North Hills,91343,818,891,9948
Kentucky Fried Chicken,16161 Leffingwell Rd,16161,Leffingwell Rd,Whittier,90603,310,542,0283
Fishbone Seafood,162 E Compton Blvd,162,E Compton Blvd,Compton,90220,310,933,8868
Carl's Jr,1625 Santa Anita Ave,1625,Santa Anita Ave,South El Monte,91733,818,762,3927
Subway,1625 W Washington Blvd,1625,W Washington Blvd,Los Angeles,90007,310,325,1415
Subway,16289-3 Paramount Blvd,16289,Paramount Blvd,Paramount,90723,213,388,2078
Everytable,1633 E 103rd St,1633,E 103rd St,Los Angeles,90002,323,407,7690
Diana's Mexican Food Restaurant,16330 S Pioneer Blvd,16330,S Pioneer Blvd,Norwalk,90650,562,926,5802
Domino's Pizza,1640 W Carson St,1640,W Carson St,Torrance,90501,661,945,9456
Del Taco,1641 S Alameda St,1641,S Alameda St,Compton,90220,310,677,7884
Carl's Jr,165 E Duarte Rd,165,E Duarte Rd,Arcadia,91006,626,447,4840
Church's Chicken,16500 Sherman Way,16500,Sherman Way,Van Nuys,91406,323,804,7536
Subway,1657 E 103rd St,1657,E 103rd St,Los Angeles,90002,310,534,5466
Subway,16607 Bellflower Blvd,16607,Bellflower Blvd,Bellflower,90706,323,566,2100
Burger King,1662 W Martin Luther King Jr Blvd,1662,W Martin Luther King Jr Blvd,Los Angeles,90062,323,588,5988
Subway,1664 W Sepulveda Blvd,1664,W Sepulveda Blvd,Harbor City,90710,818,887,0848
Pizza Hut,1665 W San Bernardino Rd,1665,W San Bernardino Rd,Covina,91722,213,388,6111
Jack in the Box,1670 W Mission Rd,1670,W Mission Rd,Pomona,91766,323,266,2449
El Pollo Loco,16707 Pioneer Blvd,16707,Pioneer Blvd,Artesia,90701,310,538,4308
Burger King,1673 E 103rd St,1673,E 103rd St,Los Angeles,90002,310,390,2891
Carl's Jr,16815 Devonshire St,16815,Devonshire St,Granada Hills,91344,626,964,4441
Crazy Falafel,16835 Devonshire St,16835,Devonshire St,Granada Hills,91344,818,488,1992
Wing Stop,1685 Pacific Coast Hwy,1685,Pacific Coast Hwy,Harbor City,90710,310,326,9464
Jack in the Box,16860 Vanowen St,16860,Vanowen St,Reseda,91406,310,832,1620
Pizza Hut,16923 Devonshire St,16923,Devonshire St,Granada Hills,91344,323,663,0400
El Pollo Loco,16940 Nordhoff Blvd,16940,Nordhoff Blvd,Northridge,91343,562,494,9691
Jack in the Box,16945 San Fernando Mission Blvd,16945,San Fernando Mission Blvd,Granada Hills,91344,909,592,1027
Pizza Hut,1700 Long Beach Blvd,1700,Long Beach Blvd,Long Beach,90813,323,757,9000
Subway,1701 Truman St,1701,Truman St,San Fernando,91340,818,765,2470
Subway,1701 W Main St,1701,W Main St,Alhambra,91801,310,289,1679
Yoshinoya Beef Bowl,1701 W Valley Blvd,1701,W Valley Blvd,Alhambra,91803,818,365,7444
Domino's Pizza,17020 Ventura Blvd,17020,Ventura Blvd,Tarzana,91316,818,991,5971
Family Fish Market,1705 E Artesia Blvd,1705,E Artesia Blvd,Long Beach,90805,562,428,4782
Jack in the Box,1710 Glendale Blvd,1710,Glendale Blvd,Echo Park,90026,323,290,2520
Deli Robert's Pizza,1713 E Vernon Ave,1713,E Vernon Ave,Los Angeles,90058,323,232,3439
Soul Food Kitchen,1714 W Century Blvd,1714,W Century Blvd,Los Angeles,90047,310,673,8526
El Pollo Loco,17182 Colima Rd,17182,Colima Rd,Hacienda Heights,91745,323,256,4321
Doublz,1720 S Whittier Blvd,1720,S Whittier Blvd,Montebello,90640,562,463,9898
Jack in the Box,1720 W Pacific Coast Hwy,1720,W Pacific Coast Hwy,Long Beach,90810,323,841,5949
Subway,1720 W Rosecrans Ave,1720,W Rosecrans Ave,Compton,90220,323,758,5700
Subway,17222 1/2 S Lakewood Blvd,17222,01/02/22 S Lakewood Blvd,Bellflower,90706,323,721,8037
Jack in the Box,1724 W Pacific Coast Hwy,1724,W Pacific Coast Hwy,Lomita,90717,310,397,4931
El Pollo Loco,17240 Saticoy St,17240,Saticoy St,Van Nuys,91406,562,985,2362
Tom's Jr,1725 N Long Beach Blvd,1725,N Long Beach Blvd,Compton,90280,323,566,3955
Domino's Pizza,1725 S Nogales St,1725,S Nogales St,Rowland Heights,91748,562,804,4637
Subway,17261 Ventura Blvd,17261,Ventura Blvd,Encino,91316,323,928,6166
Subway,1728 S Western Ave,1728,S Western Ave,Los Angeles,90006,323,980,9556
El Pollo Loco,17307 Crenshaw Blvd,17307,Crenshaw Blvd,Torrance,90504,818,545,0700
Domino's Pizza,1740 S Hoover St,1740,S Hoover St,Los Angeles,90006,310,604,1299
Subway,17401 S Avalon Blvd,17401,S Avalon Blvd,Carson,90746,818,847,2579
McDonald's,1747 W El Segundo Blvd,1747,W El Segundo Blvd,Gardena,90249,323,581,4267
Del Taco,1751 E Avenue J,1751,E Avenue J,Lancaster,93535,661,949,1853
Marjoe's Soul Food and Grill,17531 Central Ave,17531,Central Ave,Carson,90746,310,223,0661
Wing Stop,1754 W Slauson Ave,1754,W Slauson Ave,Los Angeles,90047,323,778,9464
Pizza Hut,1758 S Nogales St,1758,S Nogales St,Rowland Heights,91748,310,324,1102
McDonald's,1763 W Century Blvd,1763,W Century Blvd,Los Angeles,90047,562,591,1137
Pizza Hut,17630 Vanowen Blvd,17630,Vanowen Blvd,Van Nuys,91406,951,284,7404
Wendy's,17648 Sherman Way,17648,Sherman Way,Van Nuys,91406,818,342,3975
Subway,1766 E Avenue J,1766,E Avenue J,Lancaster,93535,323,750,8965
Jack in the Box,17744 Chatsworth St,17744,Chatsworth St,Granada Hills,91344,323,569,2335
Yoshinoya Beef Bowl,1777 E Olympic Blvd,1777,E Olympic Blvd,Los Angeles,90021,626,401,0132
Jack in the Box,17916 Hawthorne Blvd,17916,Hawthorne Blvd,Torrance,90504,310,371,8306
Louisiana Hometown Seafood Fish and Taco,17944 S Avalon Blvd,17944,S Avalon Blvd,Carson,90746,310,538,5889
Jack in the Box,1799 E Avenue J,1799,E Avenue J,Lancaster,93535,626,444,8029
Vallarta Supermarket,1801 W Avenue I,1801,W Avenue I,Lancaster,93534,818,365,8603
Domino's Pizza,1802 E Huntington Dr,1802,E Huntington Dr,Duarte,91010,818,999,3030
Yoshinoya Beef Bowl,1802 E Slauson Ave,1802,E Slauson Ave,Los Angeles,90058,310,835,9043
Carl's Jr,18025 Ventura Blvd,18025,Ventura Blvd,Tarzana,91316,626,331,2064
Vallarta Supermarket,1803 E Palmdale Blvd,1803,E Palmdale Blvd,Palmdale,93550,661,951,0233
Carl's Jr,18090 W Chatsworth,18090,W Chatsworth,Granada Hills,91344,909,596,2814
Burger King,181 S Vermont Ave,181,S Vermont Ave,Los Angeles,90004,818,883,3018
Subway,1810 W Slauson Ave,1810,W Slauson Ave,Los Angeles,90047,310,397,1515
Subway,1811 Nordhoff St,1811,Nordhoff St,Northridge,91330,626,279,6307
The Arbor Grill,1811 Nordhoff St,1811,Nordhoff St,Northridge,91330,818,677,2669
The Marketplace Sierra Center,1811 Nordhoff St,1811,Nordhoff St,Northridge,91330,818,677,2669
The Pub Sports Grill,1811 Nordhoff St,1811,Nordhoff St,Northridge,91330,818,677,2669
Burger King,18111 Nordhoff St,18111,Nordhoff St,Northridge,91330,213,258,2040
Freudian Sip (Arbor Grill Market),18111 Nordhoff St,18111,Nordhoff St,Northridge,91330,818,677,2669
Freudian Sip (Building 18),18111 Nordhoff St,18111,Nordhoff St,Northridge,91330,818,677,2669
Freudian Sip (Oviatt Library),18111 Nordhoff St,18111,Nordhoff St,Northridge,91330,818,677,2669
Freudian Sip (Sierra Center),18111 Nordhoff St,18111,Nordhoff St,Northridge,91330,818,677,2669
Freudian Sip (USU),18111 Nordhoff St,18111,Nordhoff St,Northridge,91330,818,677,2669
Freudian Sip Follett Bookstore),18111 Nordhoff St,18111,Nordhoff St,Northridge,91330,818,677,2669
McDonald's,18145 Crenshaw Blvd,18145,Crenshaw Blvd,Torrance,90504,323,779,7322
Del Taco,1818 Durfee Ave,1818,Durfee Ave,South El Monte,91733,310,839,8897
El Arka Bakery & Restaurant,1818 W 54th St,1818,W 54th St,Los Angeles,90062,323,290,3989
Subway,1821 E Cesar Chavez Ave,1821,E Cesar Chavez Ave,Los Angeles,90033,213,625,2224
Subway,1821 W Avenue I,1821,W Avenue I,Lancaster,93534,323,720,1573
Subway,1823-A E Palmdale Blvd,1823,E Palmdale Blvd,Palmdale,93550,310,938,8010
Carl's Jr,18237 Colima Rd,18237,Colima Rd,Rowland Heights,91748,805,745,7630
Paradise Pastry & Cafe,1825 W Glenoaks Blvd,1825,W Glenoaks Blvd,Glendale,91201,800,930,1777
Yoshinoya Beef Bowl,1825 W Redondo Beach Blvd,1825,W Redondo Beach Blvd,Gardena,90249,562,427,5818
Kentucky Fried Chicken,1827 E Avenue J,1827,E Avenue J,Lancaster,93535,626,355,4388
Jack in the Box,18271 Gale Ave,18271,Gale Ave,City of Industry,91748,949,689,2450
Jack in the Box,18299 Pioneer Blvd,18299,Pioneer Blvd,Artesia,90701,323,259,3154
McDonald's,1830 Long Beach Blvd,1830,Long Beach Blvd,Long Beach,90806,562,622,2716
Popeyes Chicken,18300 Van Owen St,18300,Van Owen St,Reseda,91335,310,323,7708
Pizza Hut,18325 Pioneer Blvd,18325,Pioneer Blvd,Artesia,90701,626,854,0022
El Pollo Loco,1833 S La Cienega Blvd,1833,S La Cienega Blvd,Los Angeles,90035,562,496,1664
Yoshinoya Beef Bowl,18389 Colima Rd,18389,Colima Rd,Rowland Heights,91748,323,584,6867
Kentucky Fried Chicken,18401 S Avalon Blvd,18401,S Avalon Blvd,Carson,90746,310,833,5147
Wienerschnitzel,18420 Nordhoff St,18420,Nordhoff St,Northridge,91325,818,257,0266
Little Caesar's Pizza,1846 Lomita Blvd,1846,Lomita Blvd,Lomita,90717,310,534,4888
Wendy's,18507 Devonshire St,18507,Devonshire St,Northridge,91324,818,729,8320
Pizza Hut,1851 W Slauson Ave,1851,W Slauson Ave,Los Angeles,90047,323,267,0300
Pizza Hut,18520 Soledad Canyon Rd,18520,Soledad Canyon Rd,Canyon Country,91351,818,552,2277
Jack in the Box,18525 Via Princessa,18525,Via Princessa,Santa Clarita,91387,626,332,1995
Pizza King,1855 W Manchester Ave,1855,W Manchester Ave,Los Angeles,90047,323,299,9838
Vallarta Supermarket,18571 Soledad Canyon Blvd,18571,Soledad Canyon Blvd,Canyon Country,91351,661,273,1120
Domino's Pizza,1865 Lincoln Blvd,1865,Lincoln Blvd,Santa Monica,90404,310,516,9800
Subway,1865 Lincoln Blvd,1865,Lincoln Blvd,Santa Monica,90404,310,398,1515
Carl's Jr,18756 Sherman Way,18756,Sherman Way,Reseda,91335,818,768,9227
Pizza Hut,1876 E Avenue J,1876,E Avenue J,Lancaster,93535,310,838,9600
Domino's Pizza,18870 Amar Rd,18870,Amar Rd,Walnut,91789,818,246,3850
Pollo Campero,1890 W Slauson Ave,1890,W Slauson Ave,Los Angeles,90047,323,290,1130
Wienerschnitzel,18900 Soledad Canyon Rd,18900,Soledad Canyon Rd,Santa Clarita,91350,213,500,3545
Wienerschnitzel,18900 Soledad Canyon Rd,18900,Soledad Canyon Rd,Canyon Country,91351,562,371,4797
Jack in the Box,18950 Colima Rd,18950,Colima Rd,Rowland Heights,91748,818,764,0359
Jack in the Box,18955 Soledad Canyon Rd,18955,Soledad Canyon Rd,Canyon Country,91351,310,538,1459
Domino's Pizza,18957 Ventura Blvd,18957,Ventura Blvd,Tarzana,91356,818,247,9500
Wendy's,190 W Foothill Blvd,190,W Foothill Blvd,Monrovia,91016,626,357,7971
Subway,1900 N Highland Blvd,1900,N Highland Blvd,Los Angeles,90068,909,576,1149
Campus Kitchen,1900 Pico Blvd,1900,Pico Blvd,Santa Monica,90405,310,450,4244
Carl's Jr,1900 S San Gabriel Blvd,1900,S San Gabriel Blvd,San Gabriel,91776,626,963,4010
Yoshinoya Beef Bowl,1900 S San Pedro St,1900,S San Pedro St,Los Angeles,90011,818,891,3494
Jack in the Box,1900 W 6th St,1900,W 6th St,Los Angeles,90057,818,365,5477
Subway,19030 Puente Rd,19030,Puente Rd,West Covina,91792,323,563,6600
Jack in the Box,1906 Crenshaw Blvd,1906,Crenshaw Blvd,Los Angeles,90016,213,975,9455
El Merendero,1910 Fairplex Dr,1910,Fairplex Dr,La Verne,91750,909,593,7078
Burger King,1919 Pico Blvd,1919,Pico Blvd,Santa Monica,90405,323,564,8594
Kentucky Fried Chicken,19256 Ventura Blvd,19256,Ventura Blvd,Tarzana,91356,626,966,2239
Kentucky Fried Chicken,1927 N Durfee Ave,1927,N Durfee Ave,El Monte,91733,323,779,2712
Carl's Jr,19305 Victory Blvd,19305,Victory Blvd,Reseda,91335,626,965,4455
Kentucky Fried Chicken,19307 Soledad Canyon Rd,19307,Soledad Canyon Rd,Canyon Country,91351,626,282,3177
Wendy's,19309 Sherman Way,19309,Sherman Way,Reseda,91335,323,663,7387
Jack in the Box,19322 Roscoe Blvd,19322,Roscoe Blvd,Northridge,91324,626,444,3629
Jack in the Box,1933 Durfee Ave,1933,Durfee Ave,El Monte,91733,323,242,9499
El Pollo Loco,1934 W Olympic Blvd,1934,W Olympic Blvd,Los Angeles,90006,562,695,4822
Domino's Pizza,1937 Tyler Ave,1937,Tyler Ave,South El Monte,91733,626,369,5080
Carl's Jr,19400 Ventura Blvd,19400,Ventura Blvd,Tarzana,91356,909,861,7136
Pizza Hut,19417 3/4 Victory Blvd,19417,03/04/22 Victory Blvd,Reseda,91335,323,566,6600
Locol,1950 E 103rd St,1950,E 103rd St,Los Angeles,90002,323,806,1918
Louisiana Famous Fried Chicken,1950 Rosecrans Ave,1950,Rosecrans Ave,Compton,90220,310,638,2288
Pizza Hut,19731-A Saticoy St,19731,Saticoy St,Reseda,91335,310,370,3531
Carl's Jr,19782 E Walnut Dr,19782,E Walnut Dr,City of Industry,91789,818,996,1868
Subway,198 S Vermont Ave,198,S Vermont Ave,Los Angeles,90004,310,639,2585
Garden Cafe,1990 S Bundy Dr,1990,S Bundy Dr,Los Angeles,90025,310,442,3040
Subway,200 Towne Center Dr,200,Towne Center Dr,Compton,90220,310,375,3885
El Pollo Loco,2000 E Cesar Chavez Ave,2000,E Cesar Chavez Ave,Los Angeles,90033,626,441,5055
Wing Stop,2000 Long Beach Blvd,2000,Long Beach Blvd,Long Beach,90806,562,218,9464
Subway,2000 Marengo St,2000,Marengo St,Los Angeles,90033,310,619,4547
Popeyes Chicken,2000 Morengo St,2000,Morengo St,Los Angeles,90033,323,223,8529
Kentucky Fried Chicken,2000 Pacific Coast Hwy,2000,Pacific Coast Hwy,Torrance,90505,562,599,6218
La Pizza Loca,2001 South St,2001,South St,Long Beach,90805,909,469,1200
Jack in the Box,20037 Ventura Blvd,20037,Ventura Blvd,Woodland Hills,91364,323,223,6094
Subway,20044 Ventura Blvd,20044,Ventura Blvd,Woodland Hills,91364,323,256,4002
Burger King,20056 Sherman Way,20056,Sherman Way,Canoga Park,91306,818,505,1817
Burger King,2008 Glenoaks Blvd,2008,Glenoaks Blvd,San Fernando,91340,818,703,0767
Tom's Burger,201 W Anaheim St,201,W Anaheim St,Wilmington,90744,310,830,8841
Kentucky Fried Chicken,20101 Sherman Way,20101,Sherman Way,Canoga Park,91306,562,496,1321
Carl's Jr,20105 Saticoy St,20105,Saticoy St,Canoga Park,91306,818,848,6166
Del Taco,20135 Hawthorne Blvd,20135,Hawthorne Blvd,Torrance,90503,661,947,2889
Domino's Pizza,2015 N Hollywood Way,2015,N Hollywood Way,Burbank,91505,562,427,6612
Subway,2015 W Avenue J,2015,W Avenue J,Lancaster,93536,213,316,0741
Goody's Pizza & Chicken,20161 Pioneer Blvd,20161,Pioneer Blvd,Lakewood,90715,562,924,0588
Domino's Pizza,2025 E Florence Ave,2025,E Florence Ave,Los Angeles,90001,323,753,6888
Jack in the Box,2025 Lincoln Blvd,2025,Lincoln Blvd,Santa Monica,90405,562,591,3868
Burger King,2025 W 3rd St,2025,W 3rd St,Los Angeles,90057,818,765,4486
Rio Meat Market & Restaurant,2029 N Fair Oaks Ave,2029,N Fair Oaks Ave,Pasadena,91103,626,460,8754
Pizza Hut,2029 Pico Blvd,2029,Pico Blvd,Santa Monica,90405,310,549,5000
Pizza Hut,203 S Rosemead Blvd,203,S Rosemead Blvd,Pasadena,91107,310,577,9697
Carl's Jr,2030 Montrose Ave,2030,Montrose Ave,Montrose,91020,562,789,8045
Jack in the Box,2030 W Ave K,2030,W Ave K,Lancaster,93534,818,892,7059
Jack in the Box,2030 W Avenue K,2030,W Avenue K,Lancaster,93536,626,569,0663
Pizza Hut,20305 Anza Ave,20305,Anza Ave,Torrance,90503,310,521,0500
Pizza Hut,20377 S Avalon Blvd,20377,S Avalon Blvd,Carson,90745,818,559,6500
Jack in the Box,20423 Avalon Blvd,20423,Avalon Blvd,Carson,90746,323,254,9300
Kentucky Fried Chicken,2050 N Fair Oaks Ave,2050,N Fair Oaks Ave,Pasadena,91103,323,931,4861
Chavez Polo & Burger,2057 E Cesar Chavez Ave,2057,E Cesar Chavez Ave,Los Angeles,90033,323,268,0043
Domino's Pizza,2057 N Los Robles Ave,2057,N Los Robles Ave,Pasadena,91104,562,492,1323
Waba Grill,2063 Rancho Valley Dr,2063,Rancho Valley Dr,Pomona,91766,562,218,1500
Pieology,20700 S Avalon Blvd,20700,S Avalon Blvd,Carson,90746,310,361,6608
Pizza Hut,2071 W Ave K,2071,W Ave K,Lancaster,93536,323,587,2454
Burger King,20838 Devonshire St,20838,Devonshire St,Chatsworth,91311,818,247,6965
Jack in the Box,20840 Roscoe Blvd,20840,Roscoe Blvd,Canoga Park,91306,310,715,6494
Kentucky Fried Chicken,209 E Pacific Coast Hwy,209,E Pacific Coast Hwy,Long Beach,90806,323,567,6674
Carl's Jr,20900 Roscoe Blvd,20900,Roscoe Blvd,Canoga Park,91304,323,264,1122
Pizza Hut,20901 Lassen St,20901,Lassen St,Chatsworth,91311,626,458,1313
Jack in the Box,20965 Golden Springs Dr,20965,Golden Springs Dr,Diamond Bar,91789,562,949,5097
Carl's Jr,210 N Hacienda Blvd,210,N Hacienda Blvd,City of Industry,91745,626,350,1642
Domino's Pizza,21001 Sherman Way,21001,Sherman Way,Canoga Park,91306,818,897,0355
Jack in the Box,2101 E Anaheim St,2101,E Anaheim St,Long Beach,90804,626,285,7984
Jack in the Box,2101 N Palos Verdes Dr,2101,N Palos Verdes Dr,Lomita,90717,562,225,2164
Yoshinoya Beef Bowl,2102 S Garey Ave,2102,S Garey Ave,Pomona,91766,323,565,3506
Domino's Pizza,21028 Hawthorne Blvd,21028,Hawthorne Blvd,Torrance,90503,310,316,8199
Subway,2112 Beverly Blvd,2112,Beverly Blvd,Los Angeles,90057,323,583,5300
Subway,2112 W 7th St,2112,W 7th St,Los Angeles,90057,323,780,7255
Pollo Campero,2116 W 7th St,2116,W 7th St,Los Angeles,90057,323,465,6827
Jack in the Box,2120 W Pico Blvd,2120,W Pico Blvd,Los Angeles,90006,323,751,5083
Carl's Jr,21201 Sherman Way,21201,Sherman Way,Canoga Park,91303,323,441,8878
Burger King,21227 Sherman Way,21227,Sherman Way,Canoga Park,91303,213,256,5519
Jack in the Box,2125 N Windsor Ave,2125,N Windsor Ave,Altadena,91001,323,965,8102
Subway,2132 S Fremont Ave,2132,S Fremont Ave,Alhambra,91803,310,518,6595
Pizza Hut,2133 Hacienda Blvd,2133,Hacienda Blvd,Hacienda Heights,91745,818,362,6741
El Pollo Loco,21610 Valley Blvd,21610,Valley Blvd,Walnut,91789,818,897,8968
Little Belize Restaurant,217 E Nutwood St,217,E Nutwood St,Inglewood,90301,310,674,0696
El Zocalo,217 W Rosecrans Ave,217,W Rosecrans Ave,Compton,90222,310,834,5600
Fresh and Meaty Burgers,21780 S Avalon Blvd,21780,S Avalon Blvd,Carson,90745,424,536,3046
Subway,2180 Westwood Blvd,2180,Westwood Blvd,Los Angeles,90025,626,454,4890
Subway,2183 E South St,2183,E South St,Long Beach,90805,323,264,8885
Jack in the Box,2186 Redondo Beach Blvd,2186,Redondo Beach Blvd,Torrance,90504,562,602,1100
Pizza Hut,220 E Palmdale Blvd,220,E Palmdale Blvd,Palmdale,93550,310,373,1616
El Pollo Loco,2200 Clark Ave,2200,Clark Ave,Long Beach,90815,562,496,1664
Pizza Hut,2208 Artesia Blvd,2208,Artesia Blvd,Torrance,90504,818,893,3333
Pizza Hut,2208 Foothill Blvd,2208,Foothill Blvd,La Verne,91750,323,585,2500
Kentucky Fried Chicken,221 S Long Beach Blvd,221,S Long Beach Blvd,Compton,90221,310,617,6075
Pizza Hut,2211 N Lake Ave,2211,N Lake Ave,Altadena,91001,310,695,9838
Kentucky Fried Chicken,2215 Sepulveda Blvd,2215,Sepulveda Blvd,Torrance,90501,661,948,8473
Tottino's Pizza & Louisiana Fried Chicken,2216 W El Segundo Blvd,2216,W El Segundo Blvd,Gardena,90249,310,327,4002
Pizza Hut,2218 S Garey Ave,2218,S Garey Ave,Pomona,91766,818,772,0700
Jack in the Box,2220 W Slauson Ave,2220,W Slauson Ave,Los Angeles,90043,747,202,0303
El Pollo Loco,2221 E Palmdale Blvd,2221,E Palmdale Blvd,Palmdale,93550,818,353,5789
Domino's Pizza,2221 Palo Verde Ave,2221,Palo Verde Ave,Long Beach,90815,323,262,3030
Jack in the Box,22220 S Wilmington Ave,22220,S Wilmington Ave,Carson,90745,818,240,0450
Subway,22232 S Wilmington St,22232,S Wilmington St,Carson,90745,562,728,8434
Subway,2225 E Huntington Dr,2225,E Huntington Dr,Duarte,91010,323,294,3300
Jack in the Box,2225 Foothill Blvd,2225,Foothill Blvd,La Canada,91011,626,569,0363
Pizza Hut,22323 Sherman Way,22323,Sherman Way,Canoga Park,91303,323,291,4000
Subway,2250 S Atlantic Blvd,2250,S Atlantic Blvd,Monterey Park,91754,323,755,1199
Fat Burger,2251 W Rosecrans Ave,2251,W Rosecrans Ave,Compton,90222,310,764,1771
El Pollo Loco,2258 S Atlantic Blvd,2258,S Atlantic Blvd,Monterey Park,91754,949,292,2701
El Salsabor,2262 Venice Blvd,2262,Venice Blvd,Los Angeles,90006,323,732,7742
Domino's Pizza,22643 Ventura Blvd,22643,Ventura Blvd,Woodland Hills,91364,818,954,9605
Jack in the Box,22664 Ventura Blvd,22664,Ventura Blvd,Woodland Hills,91367,818,891,0195
Jack in the Box,22730 Victory Blvd,22730,Victory Blvd,Woodland Hills,91364,626,571,5462
Subway,22800 Victory Blvd,22800,Victory Blvd,Woodland Hills,91367,626,458,5543
Jack in the Box,22908 Lyons Ave,22908,Lyons Ave,Santa Clarita,91321,310,603,8728
Kentucky Fried Chicken,2294 N Garey Ave,2294,N Garey Ave,Pomona,91766,562,926,7670
Kentucky Fried Chicken,2294 N Garey Ave,2294,N Garey Ave,Pomona,91767,562,925,1983
Wienerschnitzel,230 N Gaffey St,230,N Gaffey St,San Pedro,90731,818,506,9086
Pizza Hut,2301 N Garey Ave,2301,N Garey Ave,Pomona,91766,626,307,5533
Jack in the Box,23017 Pacific Coast Hwy,23017,Pacific Coast Hwy,Malibu,90265,310,370,9262
Jack in the Box,2305 N Lake Ave,2305,N Lake Ave,Altadena,91001,661,949,8975
El Pollo Loco,2312 S Azusa Ave,2312,S Azusa Ave,West Covina,91792,818,763,7945
Maples Restaurant,232 E 6th St,232,E 6th St,Los Angeles,90014,213,622,2663
Subway,2321 E Avenue S,2321,E Avenue S,Palmdale,93550,310,513,9028
Pizza Hut,23301 S Main St,23301,S Main St,Carson,90745,323,256,5700
Ted's Place,23401 Normandie Ave,23401,Normandie Ave,Harbor City,90710,310,891,3000
Pizza Hut,23430 Lyons Ave,23430,Lyons Ave,Newhall,91321,562,948,1191
Vallarta Supermarket,23449 Lyons Ave,23449,Lyons Ave,Valencia,91355,661,266,1398
El Pollo Loco,235 S Glendale Ave,235,S Glendale Ave,Glendale,91205,818,557,0683
Kentucky Fried Chicken,2351 E Avenue S,2351,E Avenue S,Palmdale,93550,626,797,1127
Domino's Pizza,23565 S Avalon Blvd,23565,S Avalon Blvd,Carson,90745,818,996,9690
El Pollo Loco,2360 Foothill Blvd,2360,Foothill Blvd,La Verne,91750,323,261,4671
Yoshinoya Beef Bowl,2360 Pico Blvd,2360,Pico Blvd,Santa Monica,90405,562,867,4272
Pizza Hut,23717 Victory Blvd,23717,Victory Blvd,West Hills,91307,562,597,2900
Jack in the Box,23813 S Avalon Blvd,23813,S Avalon Blvd,Carson,90745,818,896,6362
Dulan's Soul Food Kitchen,239 E Manchester Blvd,239,E Manchester Blvd,Inglewood,90301,310,671,3345
Roman's Pizza,240 N Virgil Ave,240,N Virgil Ave,Los Angeles,90004,213,386,9099
El Merendero Bakery,240 S Garey Ave,240,S Garey Ave,Pomona,91766,909,622,2430
Spiro's Burgers,240 S Pacific Ave,240,S Pacific Ave,San Pedro,90731,310,831,8985
Louisiana Best Seafood,2400 Atlantic Ave,2400,Atlantic Ave,Long Beach,90806,562,424,0298
Carl's Jr,2400 S Azusa Ave,2400,S Azusa Ave,West Covina,91792,714,736,8900
Del Taco,2401 S Azusa Ave,2401,S Azusa Ave,West Covina,91792,323,721,7207
Pizza Hut,2405 S Vermont Ave,2405,S Vermont Ave,Los Angeles,90007,323,753,8800
Subway,2408 S Barrington Ave,2408,S Barrington Ave,Los Angeles,90064,310,674,3588
El Merendero Restaurant,242 S Garey Ave,242,S Garey Ave,Pomona,91766,909,620,4503
Burger King,24201 Valencia Blvd,24201,Valencia Blvd,Valencia,91355,626,655,7828
Subway,24223 Crenshaw Blvd,24223,Crenshaw Blvd,Torrance,90505,323,293,7771
McDonald's,2427 E Avenue S,2427,E Avenue S,Palmdale,93550,562,923,0313
Subway,2427 S Azusa Ave,2427,S Azusa Ave,West Covina,91792,310,549,7198
Little Caesar's Pizza,243 W Carson St,243,W Carson St,Carson,90745,310,834,1223
Jack in the Box,2443 W Avenue I,2443,W Avenue I,Lancaster,93535,323,936,7709
Jack in the Box,2443 W Avenue I,2443,W Avenue I,Lancaster,93536,562,699,2684
Tom's Jr,245 E El Segundo Blvd,245,E El Segundo Blvd,Los Angeles,90061,323,756,1097
Yoshinoya Beef Bowl,2460 S Atlantic Blvd,2460,S Atlantic Blvd,Commerce,90040,310,215,9674
Jack in the Box,248 W Huntington Dr,248,W Huntington Dr,Monrovia,91016,661,269,2635
El Pollo Loco,24805 Pico Canyon Rd,24805,Pico Canyon Rd,Newhall,91321,323,295,8122
Jack in the Box,24820 Pico Canyon Rd,24820,Pico Canyon Rd,Santa Clara,91381,562,402,4110
Yoshinoya Beef Bowl,2500 N Pasadena Ave,2500,N Pasadena Ave,Los Angeles,90031,818,894,9108
El Pollo Loco,2501 E Slauson Ave,2501,E Slauson Ave,Huntington Park,90255,310,412,0303
Jack in the Box,2511 N San Fernando Blvd,2511,N San Fernando Blvd,Burbank,91504,562,923,1934
Burger King,2511 S San Pedro St,2511,S San Pedro St,Los Angeles,90011,213,296,1159
Jack in the Box,2511 S Vermont Ave,2511,S Vermont Ave,Los Angeles,90007,760,245,5073
La Pizza Loca,252 E Martin Luther King Jr,252,E Martin Luther King Jr,Los Angeles,90011,323,589,9150
Jack in the Box,2521 N Pasadena Ave,2521,N Pasadena Ave,Los Angeles,90031,310,644,3584
Fred Down Home Burger,2524 W Slauson Ave,2524,W Slauson Ave,Los Angeles,90043,323,298,7762
El Pollo Loco,2525 Long Beach Blvd,2525,Long Beach Blvd,Long Beach,90806,818,895,1680
El Pollo Loco,2528 W Commonwealth Ave,2528,W Commonwealth Ave,Alhambra,91803,626,914,3344
Everytable,253 E Compton Blvd,253,E Compton Blvd,Compton,90220,323,458,6979
Jack in the Box,2531 W Valley Blvd,2531,W Valley Blvd,Alhambra,91803,562,691,1945
Pizza Hut,2542 W Temple St,2542,W Temple St,Los Angeles,90026,818,352,8868
Jack in the Box,2548 S Azusa Ave,2548,S Azusa Ave,West Covina,91792,562,420,9971
Fair Oaks Burger,2560 Fair Oaks Ave,2560,Fair Oaks Ave,Altadena,91001,626,398,3630
Subway,257 N Rosemead Blvd,257,N Rosemead Blvd,Pasadena,91107,818,884,0919
McDonald's,2584 Slauson Ave,2584,Slauson Ave,Huntington Park,90255,562,420,3854
McDonald's,2599 Cherry Ave,2599,Cherry Ave,Signal Hill,90755,562,424,8500
Honey's Kettle Fried Chicken,2600 E Alondra Blvd,2600,E Alondra Blvd,Compton,90221,310,638,7871
Jack in the Box,2601 E Slausin Ave,2601,E Slausin Ave,Huntington Park,90255,818,763,3818
Burger King,2606 E Palmdale Blvd,2606,E Palmdale Blvd,Palmdale,93551,626,357,6662
Pizza Moon,2619 S Western Ave,2619,S Western Ave,Los Angeles,90018,323,733,2222
El Pollo Loco,262 S Rosemead Blvd,262,S Rosemead Blvd,Pasadena,91107,323,265,0179
Domino's Pizza,26500 W Agoura Rd,26500,W Agoura Rd,Calabasas,91302,310,513,8040
Jack in the Box,26510 Agoura Rd,26510,Agoura Rd,Calabasas,91302,323,227,9759
Yoshinoya Beef Bowl,2667 E Florence Ave,2667,E Florence Ave,Huntington Park,90255,310,677,9543
McDonald's,2667 Slauson Blvd,2667,Slauson Blvd,Huntington Park,90255,323,754,7738
Kentucky Fried Chicken,26715 Western Ave,26715,Western Ave,Lomita,90717,323,221,0478
El Pollo Loco,26930 Sierra Hwy,26930,Sierra Hwy,Santa Clarita,91321,909,860,2127
Jack in the Box,2705 Pacific Coast Hwy,2705,Pacific Coast Hwy,Torrance,90505,909,260,2122
Bobo's Hamburgers,2709 Firestone Blvd,2709,Firestone Blvd,South Gate,90280,323,856,2020
Dominguez Pizza,2713 E Carson St,2713,E Carson St,Long Beach,90810,310,835,5097
El Pollo Loco,2727 E Carson St,2727,E Carson St,Lakewood,90712,310,645,2080
El Pollo Loco,2727 E Carson St,2727,E Carson St,Lakewood,90712,310,674,8110
Jack in the Box,2760 Cabrillo Ave,2760,Cabrillo Ave,Torrance,90501,323,780,9909
Jack in the Box,2775 S Reservior St,2775,S Reservior St,Pomona,91766,562,776,6038
Subway,2782 W Imperial Hwy,2782,W Imperial Hwy,Inglewood,90303,626,280,2240
Incredible Cafe Express,2787 E Del Amo Blvd,2787,E Del Amo Blvd,Rancho Dominguez,90221,310,603,1245
Subway,2795 W Avenue L,2795,W Avenue L,Lancaster,93536,323,755,7200
Pizza Hut,27984 Seco Canyon Rd,27984,Seco Canyon Rd,Santa Clarita,91350,626,284,8200
Subway,2800 E 1st St,2800,E 1st St,Los Angeles,90033,323,937,0517
Lucky Boy Grill,2800 E Del Amo Blvd,2800,E Del Amo Blvd,Carson,90746,310,637,1164
El Pollo Loco,2801 Crenshaw Blvd,2801,Crenshaw Blvd,Los Angeles,90016,818,891,8383
Kentucky Fried Chicken,2801 N Broadway,2801,N Broadway,Los Angeles,90031,310,670,4050
Tam's Burgers,2801 S Central Ave,2801,S Central Ave,Los Angeles,90011,323,234,5630
Kentucky Fried Chicken,2801 W Olympic Blvd,2801,W Olympic Blvd,Los Angeles,90006,323,268,1197
Domino's Pizza,2803 S Figueroa St,2803,S Figueroa St,Los Angeles,90007,626,791,9285
Kentucky Fried Chicken,2809 S Figueroa St,2809,S Figueroa St,Los Angeles,90007,310,670,7947
Domino's Pizza,2815 S Robertson Blvd,2815,S Robertson Blvd,Los Angeles,90034,661,943,2456
Dino's Burgers,2817 N Main St,2817,N Main St,Los Angeles,90031,323,223,1843
Subway,2817 S Crenshaw Blvd,2817,S Crenshaw Blvd,Los Angeles,90016,626,282,1401
Yoshinoya Beef Bowl,2850 Crenshaw Blvd,2850,Crenshaw Blvd,Los Angeles,90016,626,330,9820
Subway,288 E Live Oak Ave,288,E Live Oak Ave,Arcadia,91006,213,388,4300
Subway,289 Atlantic Ave,289,Atlantic Ave,Los Angeles,90022,323,820,9629
El Pollo Loco,28901 Western Ave,28901,Western Ave,Rancho Palos Verdes,90275,626,289,9882
Yoshinoya Beef Bowl,2897 W Olympic Blvd,2897,W Olympic Blvd,Los Angeles,90006,323,726,6250
Burger King,290 E Compton Blvd,290,E Compton Blvd,Compton,90221,323,782,0191
Jack in the Box,2921 Figueroa St,2921,Figueroa St,Los Angeles,90007,818,352,1881
La Pizza Loca,2924 Cesar Chavez Ave,2924,Cesar Chavez Ave,Los Angeles,90033,310,677,1117
Pizza Hut,2930 E Colorado Blvd,2930,E Colorado Blvd,Los Angeles,90041,562,988,1711
Jack in the Box,29317 S Western Ave,29317,S Western Ave,Rancho Palos Verdes,90275,310,534,0220
Jack in the Box,29317 S Western Ave,29317,S Western Ave,Rancho Palos Verdes,90732,909,260,2122
Kentucky Fried Chicken,2941 W Imperial Hwy,2941,W Imperial Hwy,Inglewood,90303,818,894,4500
Kentucky Fried Chicken,2970 Bellflower Blvd,2970,Bellflower Blvd,Long Beach,90815,323,464,9637
Carl's Jr,2980 E Workman Ave,2980,E Workman Ave,West Covina,91791,818,894,4341
Jack in the Box,30 N Rosemead Blvd,30,N Rosemead Blvd,Pasadena,91107,626,791,5402
Popeyes Chicken,300 W Compton Blvd,300,W Compton Blvd,Compton,90220,818,774,9581
Popeyes Chicken,300 W Huntington Dr,300,W Huntington Dr,Monrovia,91016,323,779,6847
Subway,300 W Manchester Blvd,300,W Manchester Blvd,Inglewood,90301,310,632,9642
Pizza Hut,300 W Willow St,300,W Willow St,Long Beach,90806,323,820,9629
El Huero,3000 S Figueroa St,3000,S Figueroa St,Los Angeles,90007,213,747,3944
Domino's Pizza,3001 Sepulveda Blvd,3001,Sepulveda Blvd,Manhattan Beach,90266,310,826,3030
El Pollo Loco,3008 S Sepulveda Blvd,3008,S Sepulveda Blvd,Los Angeles,90034,909,592,6832
La Taquiza,3009 S Figueroa St,3009,S Figueroa St,Los Angeles,90007,323,778,2818
Corner Kafe,301 E 7th St,301,E 7th St,Los Angeles,90014,213,622,5202
Subway,3010 San Gabriel Blvd,3010,San Gabriel Blvd,Rosemead,91770,323,938,0407
Wienerschnitzel,3012 Artesia Blvd,3012,Artesia Blvd,Long Beach,90804,818,257,0266
Fresh and Meaty Burgers,3016 W Florence Ave,3016,W Florence Ave,Los Angeles,90043,323,751,2247
Green Apple Grill,302 E 5th St,302,E 5th St,Los Angeles,90013,213,817,6011
Yoshinoya Beef Bowl,3021 S Figueroa St,3021,S Figueroa St,Los Angeles,90007,626,292,1120
Jack in the Box,3032 Palo Verde Ave,3032,Palo Verde Ave,Long Beach,90808,323,263,1450
Burger King,3036 S Crenshaw Blvd,3036,S Crenshaw Blvd,Los Angeles,90016,310,397,5040
Jack in the Box,3038 N San Gabriel Blvd,3038,N San Gabriel Blvd,Rosemead,91770,323,266,1730
Burger King,304 W Century Blvd,304,W Century Blvd,Los Angeles,90003,661,948,4417
Chinatown Express,304 W Florence Ave,304,W Florence Ave,Los Angeles,90003,323,778,0239
Subway,3041 W Avenue K,3041,W Avenue K,Lancaster,93536,562,591,0033
Burger King,3045 Rancho Vista Blvd,3045,Rancho Vista Blvd,Palmdale,93551,818,780,4176
Fabulous Grill,305 E Carson St,305,E Carson St,Carson,90745,310,970,1944
El Pollo Loco,3051 Rancho Vista Blvd,3051,Rancho Vista Blvd,Palmdale,93551,310,632,7446
El Pollo Loco,3070 N San Fernando Rd,3070,N San Fernando Rd,Los Angeles,90065,661,222,7150
Louis Burgers,308 E Compton Blvd,308,E Compton Blvd,Compton,90220,310,637,5263
Subway,308 S Broadway,308,S Broadway,Los Angeles,90013,310,518,6281
Yoshinoya Beef Bowl,3081 N San Fernando Rd,3081,N San Fernando Rd,Los Angeles,90065,323,258,4142
Kentucky Fried Chicken,3100 E Gage Ave,3100,E Gage Ave,Huntington Park,90255,310,532,2970
Subway,3105 N San Fernando Rd,3105,N San Fernando Rd,Los Angeles,90065,818,571,8625
Jack in the Box,3107 W Manchester Blvd,3107,W Manchester Blvd,Inglewood,90305,323,263,1450
Pizza Hut,3109 W Rosecrans Ave,3109,W Rosecrans Ave,Hawthorne,90250,818,505,8000
Subway,3112 Glendale Blvd,3112,Glendale Blvd,Los Angeles,90039,213,626,1605
Subway,3113 4th Ave,3113,4th Ave,Los Angeles,90018,562,427,7610
Daily Donuts House,312 W Compton Blvd,312,W Compton Blvd,Compton,90220,310,638,9630
Alma's Cookies & Company Restaurant,312 W Compton Blvd,312,W Compton Blvd,Compton,90220,424,381,4410
El Pollo Loco,3125 W Century Blvd,3125,W Century Blvd,Inglewood,90301,818,990,7655
Subway,3126 E Florence Ave,3126,E Florence Ave,Huntington Park,90255,818,906,3376
Subway,3127-A Baldwin Park Blvd,3127,Baldwin Park Blvd,Baldwin Park,91706,818,506,7870
Jack in the Box,314 San Fernando Mission Blvd,314,San Fernando Mission Blvd,San Fernando,91340,562,868,1242
Broadway Food Corner,315 W 5th St,315,W 5th St,Los Angeles,90013,213,448,9787
Yoshinoya Beef Bowl,317 San Fernando Mission Blvd,317,San Fernando Mission Blvd,San Fernando,91340,562,801,8333
Pizza Hut,3176 Florence Ave,3176,Florence Ave,Huntington Park,90255,661,948,8993
El Pollo Loco,31783 Castaic Rd,31783,Castaic Rd,Castaic,91384,661,274,0463
Subway,3183 Wilshire Blvd,3183,Wilshire Blvd,Los Angeles,90010,661,940,5136
Jack in the Box,3188 Baldwin Park Blvd,3188,Baldwin Park Blvd,Baldwin Park,91706,310,673,5025
Jack in the Box,319 E Albertoni St,319,E Albertoni St,Carson,90746,818,313,9459
Kentucky Fried Chicken,320 N Soto St,320,N Soto St,Los Angeles,90033,323,585,1284
Subway,321 W Willow St,321,W Willow St,Long Beach,90806,626,446,5464
Carl's Jr,3215 N Broadway Ave,3215,N Broadway Ave,Los Angeles,90031,323,766,8290
Cypress Best Burgers,3240 N Figueroa St,3240,N Figueroa St,Los Angeles,90065,323,223,1505
Pizza Hut,3255 Tweedy Blvd,3255,Tweedy Blvd,South Gate,90280,562,927,4090
Popeyes Chicken,3268 W Slauson Ave,3268,W Slauson Ave,Los Angeles,90043,310,549,3271
Subway,3274 W Slauson Ave,3274,W Slauson Ave,Los Angeles,90043,213,626,0560
El Pollo Loco,330 N Alvarado St,330,N Alvarado St,Los Angeles,90026,323,732,5626
Subway,3300 S Central Ave,3300,S Central Ave,Los Angeles,90011,562,425,6835
Pizza Hut,331 N Citrus Ave,331,N Citrus Ave,Azusa,91702,626,445,5599
Pizza Hut,3311 W Magnolia Blvd,3311,W Magnolia Blvd,Burbank,91505,562,501,9854
La Pizza Loca,3320 Tweedy Blvd,3320,Tweedy Blvd,South Gate,90280,562,408,0023
Subway,3323 Wilshire Blvd,3323,Wilshire Blvd,Los Angeles,90010,626,285,1414
El Pollo Loco,3350 W Vernon Ave,3350,W Vernon Ave,Los Angeles,90008,562,602,1550
Bobo's Hamburgers,3390 E Imperial Hwy,3390,E Imperial Hwy,Lynwood,90262,310,637,1191
Jack in the Box,3399 E Pacific Coast Hwy,3399,E Pacific Coast Hwy,Signal Hills,90755,310,217,0882
Kentucky Fried Chicken,340 N Western Ave,340,N Western Ave,Los Angeles,90004,909,623,2549
Pizza Hut,3400 E First St,3400,E First St,Los Angeles,90063,562,866,6611
Subway,3400 Long Beach Blvd,3400,Long Beach Blvd,Long Beach,90807,661,949,8567
Domino's Pizza,3401-7 Platt Ave,3401,Platt Ave,West Hills,91307,562,861,3030
Master Burger,3420 W Slauson Ave,3420,W Slauson Ave,Los Angeles,90043,323,293,0890
El Pollo Loco,3425 E Anaheim St,3425,E Anaheim St,Long Beach,90804,661,299,2236
El Pollo Loco,3425 E Anaheim St,3425,E Anaheim St,Long Beach,90814,626,917,9407
Vallarta Supermarket,3425 Whittier Blvd,3425,Whittier Blvd,Los Angeles,90023,818,253,5921
Kentucky Fried Chicken,345 W Sierra Madre Blvd,345,W Sierra Madre Blvd,Sierra Madre,91024,323,936,8079
El Pollo Loco,3463 Artesia Blvd,3463,Artesia Blvd,Long Beach,90805,562,862,3139
Rally's Hamburgers,3490 E Artesia Blvd,3490,E Artesia Blvd,Long Beach,90745,562,422,6663
Rally's Hamburger,3490 E Artesia Blvd,3490,E Artesia Blvd,Long Beach,90805,562,422,6663
Pizza Hut,3498 E 7th St,3498,E 7th St,Long Beach,90804,909,599,0444
Pizza Hut,3498 E 7th St,3498,E 7th St,Long Beach,90814,323,265,0800
Burger King,3501 E Whittier Blvd,3501,E Whittier Blvd,Los Angeles,90023,323,779,3684
Jack in the Box,3504 Firestone Blvd,3504,Firestone Blvd,South Gate,90280,818,893,9919
Subway,3504 W Sunset Blvd,3504,W Sunset Blvd,Los Angeles,90026,562,920,9606
Yoshinoya Beef Bowl,3506 Tweedy Blvd,3506,Tweedy Blvd,South Gate,90280,626,449,7065
Del Taco,3510 W Century Blvd,3510,W Century Blvd,Inglewood,90303,818,994,3564
B & R's Old Fashion Burger,3512 W Rosecrans Ave,3512,W Rosecrans Ave,Hawthorne,90250,310,679,4774
Burger King,3520 S Sepulveda Blvd,3520,S Sepulveda Blvd,Los Angeles,90034,818,718,6366
Subway,3522 Tweedy Blvd,3522,Tweedy Blvd,South Gate,90280,661,949,3777
Yoshinoya Beef Bowl,3532 N Peck Rd,3532,N Peck Rd,El Monte,91731,310,450,2004
The Best Burger,3533 S Western Ave,3533,S Western Ave,Los Angeles,90018,323,732,2197
Burger King,354 W Huntington Dr,354,W Huntington Dr,Monrovia,91016,661,942,2477
Subway,3560 S La Cienega Blvd,3560,S La Cienega Blvd,Los Angeles,90016,562,866,6909
Subway,3561 W Century Blvd,3561,W Century Blvd,Inglewood,90303,323,526,1220
Tai Pan Chinese Fast Food,3580 Santa Anita Ave,3580,Santa Anita Ave,El Monte,91731,626,350,1813
Jack in the Box,3600 E 3rd St,3600,E 3rd St,Los Angeles,90063,310,631,6933
Pizza Hut,3601 Martin Luther King Jr Blvd,3601,Martin Luther King Jr Blvd,Lynwood,90262,310,641,1114
Jack in the Box,3605 Atlantic Ave,3605,Atlantic Ave,Long Beach,90807,310,419,8153
Subway,3613 Inglewood Ave,3613,Inglewood Ave,Redondo Beach,90278,310,670,7092
Subway,3628 Martin Luther King Jr Blvd,3628,Martin Luther King Jr Blvd,Lynwood,90262,562,938,7827
Subway,3632 Rosemead Blvd,3632,Rosemead Blvd,Rosemead,91770,310,470,2013
Pizza Hut,3646 Nogales St,3646,Nogales St,West Covina,91792,323,260,7100
Rally's Hamburger,3650 W Martin Luther King Jr Blvd,3650,W Martin Luther King Jr Blvd,Los Angeles,90008,310,219,0013
Cafe Creole,3650 W Martin Luther King Jr Blvd,3650,W Martin Luther King Jr Blvd,Los Angeles,90008,323,389,8355
Wing N Stuff,3650 W Martin Luther King Jr Blvd,3650,W Martin Luther King Jr Blvd,Los Angeles,90008,323,295,2928
Subway,370 E 2nd St,370,E 2nd St,Los Angeles,90012,909,595,9375
Jack in the Box,3700 E Slauson Ave,3700,E Slauson Ave,Maywood,90270,310,802,9041
Del Taco,3705 Robertson Blvd,3705,Robertson Blvd,Culver City,90232,562,402,4350
Jack in the Box,37070 47th St E,37070,47th St E,Palmdale,93552,626,299,1976
Subway,3713 E South St,3713,E South St,Long Beach,90805,310,725,9215
McDonald's,37217 47th St E,37217,47th St E,Palmdale,93550,310,771,8290
Pizza Hut,37244 47th St,37244,47th St,Palmdale,93550,909,396,1600
California Steak & Fries,3745 S La Brea Ave,3745,S La Brea Ave,Los Angeles,90016,323,294,2200
Kentucky Fried Chicken,375 E Mission Blvd,375,E Mission Blvd,Pomona,91766,323,268,1133
Hamburger Dan's,3764 S Normandie Ave,3764,S Normandie Ave,Los Angeles,90007,323,737,1522
Kentucky Fried Chicken,3777 Pacific Coast Hwy,3777,Pacific Coast Hwy,Torrance,90505,213,487,4503
Pizza Hut,37926 47th St E,37926,47th St E,Palmdale,93552,310,329,9900
Ameci Pizza Kitchen,3800 Foothill Blvd,3800,Foothill Blvd,Glendale,91214,818,249,0400
El Pollo Loco,38007 E 47th St,38007,E 47th St,Palmdale,93552,213,748,7616
Rosita's Panaderia and Restaurant,3806 S Western Ave,3806,S Western Ave,Los Angeles,90062,323,733,7978
Vallarta Supermarket,38118 47th St,38118,47th St,Palmdale,93552,661,260,1110
Burger King,38137 47th St,38137,47th St,Palmdale,93552,661,272,4778
Kentucky Fried Chicken,3814 Peck Rd,3814,Peck Rd,El Monte,91732,310,608,1518
Subway,3817 Sepulveda Blvd,3817,Sepulveda Blvd,Culver City,90230,818,893,3368
Piara Pizza,3818 Peck Rd,3818,Peck Rd,El Monte,91732,626,443,4488
Wing Stop,3825 S Crenshaw Blvd,3825,S Crenshaw Blvd,Los Angeles,90008,562,432,9464
Jack in the Box,3830 W Sierra Hwy,3830,W Sierra Hwy,Acton,93510,310,631,7413
Carl's Jr,3832 Peck Rd,3832,Peck Rd,El Monte,91732,562,692,3114
ND's Diner,38335 90th St E,38335,90th St E,Littlerock,93543,661,944,1243
California Cheeseburgers,38335 E 90th St,38335,E 90th St,Littlerock,93543,661,944,1243
Subway,38709 Tierra Subida,38709,Tierra Subida,Palmdale,93551,562,948,3140
Jack in the Box,390 E Ocean Blvd,390,E Ocean Blvd,Long Beach,90806,818,708,3501
Banh Mi Che Cali,3901 N Peck Rd,3901,N Peck Rd,El Monte,91732,626,350,9635
Pizza Hut,3902 Pacific Coast Hwy,3902,Pacific Coast Hwy,Torrance,90505,818,895,0944
Subway,3902 Pacific Coast Hwy,3902,Pacific Coast Hwy,Torrance,90505,818,670,8100
Domino's Pizza,393 Redondo Beach Ave,393,Redondo Beach Ave,Long Beach,90814,562,434,9971
Subway,3939-D Crenshaw Blvd,3939,Crenshaw Blvd,Los Angeles,90008,310,479,7827
Jack in the Box,3940 Redondo Beach Blvd,3940,Redondo Beach Blvd,Torrance,90504,661,254,3330
Burger King,39519 W 10th St,39519,W 10th St,Palmdale,93551,661,722,0340
Yoshinoya Beef Bowl,3959 Wilshire Blvd,3959,Wilshire Blvd,Los Angeles,90010,323,560,8567
Subway,3959 Wilshire Blvd,3959,Wilshire Blvd,Los Angeles,90010,562,777,2249
Pizza Hut,3959 Wilshire Blvd,3959,Wilshire Blvd,Los Angeles,90010,661,259,8983
El Pollo Loco,3959 Wilshire Blvd,3959,Wilshire Blvd,Los Angeles,90010,818,506,7667
Subway,3974 S Figueroa St,3974,S Figueroa St,Los Angeles,90037,213,380,1485
Jack in the Box,3980 E Ocean Blvd,3980,E Ocean Blvd,Long Beach,90803,818,782,1823
Subway,3991 S Western Ave,3991,S Western Ave,Los Angeles,90062,323,951,9266
New Hong Kong Chinese Express,3991 S Western Ave,3991,S Western Ave,Los Angeles,90062,562,349,3109
Pizza King,3993 S Western Ave,3993,S Western Ave,Los Angeles,90062,323,971,4661
Carl's Jr,400 S Glendora Ave,400,S Glendora Ave,West Covina,91790,818,881,8775
LA Trade Technical College Campus Cafeteria,400 W Washington Blvd,400,W Washington Blvd,Los Angeles,90015,213,763,7055
Kentucky Fried Chicken,4001 E Anaheim St,4001,E Anaheim St,Long Beach,90804,626,968,8556
Yoshinoya Beef Bowl,4004 S Vermont Ave,4004,S Vermont Ave,Los Angeles,90037,323,971,4560
Food for Life,401 E 6th St,401,E 6th St,Los Angeles,90014,213,896,0200
Louisiana Famous Fried Chicken,4014 W Washington Blvd,4014,W Washington Blvd,Los Angeles,90018,661,951,8300
Kentucky Fried Chicken,4025 Slauson Ave,4025,Slauson Ave,Maywood,90270,562,428,5459
Big Al's Pizza,40340 E 170th St,40340,E 170th St,Palmdale,93591,661,264,4662
Western Plaza Fish Market,4042 S Western Ave,4042,S Western Ave,Los Angeles,90062,323,296,1892
El Pollo Loco,4058 Tweedy Blvd,4058,Tweedy Blvd,South Gate,90280,626,576,5438
Jack in the Box,4069 W Century Blvd,4069,W Century Blvd,Inglewood,90304,626,918,7569
Subway,4070-A Tweedy Blvd,4070,Tweedy Blvd,South Gate,90280,310,632,6808
El Pollo Loco,408 E Washington Blvd,408,Washington Blvd,Los Angeles,90015,818,763,6592
Cliff's Texas Style Burritos,408 W Alondra Blvd,408,W Alondra Blvd,Compton,90220,310,609,2755
Burger King,4107 W Avenue L,4107,W Avenue L,Lancaster,93536,818,760,0961
Pizza Hut,4110 N Lakewood Blvd,4110,N Lakewood Blvd,Long Beach,90808,818,779,0400
La Canasta Tortilleria,4112 E Whittier Blvd,4112,E Whittier Blvd,Los Angeles,90023,323,269,2562
Tello's Mexican Restaurant,415 Moorpark Ave,415,Moorpark Ave,Agoura Hills,91301,805,523,7640
Kentucky Fried Chicken,415 S Gaffey St,415,S Gaffey St,San Pedro,90731,310,676,5085
Tam's Brother Burger,4150 S Broadway,4150,S Broadway,Los Angeles,90037,323,231,3317
Joyce Chicken and Fish,4166 S Broadway,4166,S Broadway,Los Angeles,90037,323,325,7271
Jack in the Box,4170 Lakewood Blvd,4170,Lakewood Blvd,Long Beach,90808,323,235,4345
Yoshinoya Beef Bowl,420 N Azusa Ave,420,N Azusa Ave,Covina,91722,213,385,9031
Yoshinoya Beef Bowl,4202 Beverly Blvd,4202,Beverly Blvd,Los Angeles,90004,562,928,1603
Domino's Pizza,42056 W 50th St,42056,W 50th St,Lancaster,93536,818,880,0550
Pizza Hut,4207 Beverly Blvd,4207,Beverly Blvd,Los Angeles,90004,310,373,1616
Pizza Hut,4209 Cesar Chavez Blvd,4209,Cesar Chavez Blvd,Los Angeles,90063,310,761,1000
Del Taco,421 W Palmdale Blvd,421,W Palmdale Blvd,Palmdale,93551,562,229,9400
Jack in the Box,4210 S Crenshaw Blvd,4210,S Crenshaw Blvd,Los Angeles,90043,310,470,2013
Subway,4210 Woodruff Ave,4210,Woodruff Ave,Lakewood,90713,562,989,9733
Jack in the Box,4216 N Rosemead Blvd,4216,N Rosemead Blvd,Rosemead,91770,562,923,6690
Domino's Pizza,4227 Atlantic Ave,4227,Atlantic Ave,Long Beach,90807,323,255,1080
Jack in the Box,4228 N Figueroa St,4228,N Figueroa St,Los Angeles,90065,562,424,9050
Carl's Jr,424 W Los Feliz Rd,424,W Los Feliz Rd,Glendale,91204,818,884,0783
Subway,425 S Los Angeles St,425,S Los Angeles St,Los Angeles,90013,323,567,7009
Jack in the Box,4255 E Cesar Chavez St Ave,4255,E Cesar Chavez St Ave,Los Angeles,90063,818,760,4199
El Pollo Loco,426 N La Brea Ave,426,N La Brea Ave,Inglewood,90302,661,285,0402
Subway,4267 Atlantic Ave,4267,Atlantic Ave,Long Beach,90805,213,614,8888
Subway,4267 Atlantic Ave,4267,Atlantic Ave,Long Beach,90807,323,650,2888
Domino's Pizza,4285 W El Segundo Blvd,4285,W El Segundo Blvd,Hawthorne,90250,562,861,3030
Jack in the Box,4290 E Olympic Blvd,4290,E Olympic Blvd,Los Angeles,90023,626,570,6131
Pizza Hut,4329 N Figueroa St,4329,N Figueroa St,Highland Park,90065,818,509,9300
Domino's Pizza,433 N Glenoaks Blvd,433,N Glenoaks Blvd,Burbank,91502,323,587,0300
Primo Burgers,43369 10th St,43369,10th St,Lancaster,93534,661,267,0023
Kentucky Fried Chicken,4339 E Imperial Hwy,4339,E Imperial Hwy,Lynwood,90262,626,794,1159
Subway,4343 E Anaheim St,4343,E Anaheim St,Long Beach,90804,310,608,0688
Subway,435 W Anaheim St,435,W Anaheim St,Long Beach,90813,562,926,1705
Burger King,4350 W Century Blvd,4350,W Century Blvd,Inglewood,90304,310,963,6533
Pizza Hut,4351 S Central Ave,4351,S Central Ave,Los Angeles,90011,626,917,6464
Jack in the Box,4353 S Figueroa St,4353,S Figueroa St,Los Angeles,90037,661,945,4244
Kentucky Fried Chicken,43559 10th St W,43559,10th St W,Lancaster,93534,818,881,2131
Pizza Hut,4356 Leimert Blvd,4356,Leimert Blvd,Los Angeles,90008,562,422,9005
Burger King,43627 N 15th St W,43627,N 15th St W,Lancaster,93534,661,272,9126
Jack in the Box,43628 10th St W,43628,10th St W,Lancaster,93534,213,748,7177
Master Burger,4366 W Adams Blvd,4366,W Adams Blvd,Los Angeles,90018,323,295,1940
Sharkey's Woodfired Mexican Grill,4371 Glencoe Ave,4371,Glencoe Ave,Marina Del Rey,90292,310,301,4441
Vallarta Supermarket,440 E Palmdale Blvd,440,E Palmdale Blvd,Palmdale,93550,818,526,0081
Louisiana Fried Chicken & Chinese Food,4400 S Central Ave,4400,S Central Ave,Los Angeles,90011,323,233,8728
El Pollo Loco,4405 Avalon Blvd,4405,Avalon Blvd,Los Angeles,90011,323,722,0420
Jack in the Box,4407 S Central Ave,4407,S Central Ave,Los Angeles,90011,323,789,6791
Yoshinoya Beef Bowl,4407 Slauson Ave,4407,Slauson Ave,Maywood,90270,909,895,0549
Pizza Hut,4408 Vineland Ave,4408,Vineland Ave,North Hollywood,91602,626,398,3700
Pizza King,441 E El Segundo Blvd,441,E El Segundo Blvd,Los Angeles,90061,323,757,0260
Downtown Catch 21,441 S Central Ave,441,S Central Ave,Los Angeles,90013,213,485,1614
Burger King,4410 S Figueroa St,4410,S Figueroa St,Los Angeles,90037,323,261,7978
Louisiana Fried Chicken & Chinese Fast Foods,4411 S Western Ave,4411,S Western Ave,Los Angeles,90062,323,232,2005
Chinese Express,4414 S Avalon Blvd,4414,S Avalon Blvd,Los Angeles,90011,323,232,5788
Tam's Burgers,4419 S Normandie Ave,4419,S Normandie Ave,Los Angeles,90037,323,290,9821
Master Burger,4419 S Western Ave,4419,S Western Ave,Los Angeles,90062,213,536,5039
Original Louis Burgers,44328 W 10th St,44328,W 10th St,Lancaster,93534,661,948,7865
The White House,44431 N Division St,44431,N Division St,Lancaster,93534,661,942,9384
Hall's Krispy Krunchy Chicken,4448 W Slauson Ave,4448,W Slauson Ave,Los Angeles,90043,323,815,1567
Subway,4455 E Slauson Ave,4455,E Slauson Ave,Maywood,90270,310,516,9222
Rosales Caribbean Cuisine,446 S Market St,446,S Market St,Inglewood,90301,310,647,1200
Jack in the Box,4470 Eagle Rock Blvd,4470,Eagle Rock Blvd,Los Angeles,90041,323,724,3764
Subway,44764 Valley Central Way,44764,Valley Central Way,Lancaster,93536,310,619,4547
Pizza Hut,44836 10th St,44836,10th St,Lancaster,93534,818,890,8000
El Pollo Loco,4501 E Slauson Ave,4501,E Slauson Ave,Maywood,90270,562,924,2250
Pizza Hut,4502 E Los Coyotes Diagonal,4502,E Los Coyotes Diagonal,Long Beach,90815,213,489,3863
Popeyes Chicken,451 E El Segundo Blvd,451,E El Segundo Blvd,Los Angeles,90061,626,358,9001
El Pollo Loco,451 S Vincent Ave,451,S Vincent Ave,West Covina,91790,310,674,7924
Jack in the Box,4525 Florence Ave,4525,Florence Ave,Bell,90201,661,726,3626
Kentucky Fried Chicken,4525 Torrance Blvd,4525,Torrance Blvd,Torrance,90503,323,753,1375
Kentucky Fried Chicken,4528 Atlantic Ave,4528,Atlantic Ave,Long Beach,90807,626,285,1227
Subway,4528 Whittier Blvd,4528,Whittier Blvd,Los Angeles,90022,562,426,2678
Burger King,4542 E Pacific Coast Hwy,4542,E Pacific Coast Hwy,Long Beach,90804,310,671,4208
El Pollo Loco,4544 Saugus Ave,4544,Saugus Ave,Sherman Oaks,91403,310,820,7924
Pizza Hut,4558 Atlantic Ave,4558,Atlantic Ave,Long Beach,90807,626,451,5900
Domino's Pizza,4561 N Peck Rd,4561,N Peck Rd,El Monte,91732,310,676,0017
Jack in the Box,459 S Vermont Ave,459,S Vermont Ave,Los Angeles,90020,818,285,2160
Domino's Pizza,4604 E Avenue S,4604,E Avenue S,Palmdale,93550,213,748,7774
Subway,4621 E Avenue S,4621,E Avenue S,Palmdale,93552,213,624,6490
Pizza Hut,4629 W Santa Monica Blvd,4629,W Santa Monica Blvd,Los Angeles,90029,323,231,8000
Jack in the Box,465 S Fairfax Ave,465,S Fairfax Ave,Los Angeles,90036,909,622,1004
Pizza Hut,468 E San Bernardino Rd,468,E San Bernardino Rd,Covina,91723,323,563,9100
Subway,4730 S Inglewood Blvd,4730,S Inglewood Blvd,Culver City,90230,213,747,9779
Subway,4731 Venice Blvd,4731,Venice Blvd,Los Angeles,90019,310,392,9339
Jack in the Box,4737 Imperial Hwy,4737,Imperial Hwy,Inglewood,90304,323,722,6943
Domino's Pizza,4746 E Cesar Chavez Ave,4746,E Cesar Chavez Ave,Los Angeles,90022,310,396,9696
Subway,4770 E Cesar Chavez Ave,4770,E Cesar Chavez Ave,Los Angeles,90022,661,943,1440
El Pollo Loco,4794 N Peck Rd,4794,N Peck Rd,El Monte,91732,818,886,3157
RC Burgers,4800 Firestone Blvd,4800,Firestone Blvd,South Gate,90280,562,863,8851
Jack in the Box,4828 Laurel Canyon Blvd,4828,Laurel Canyon Blvd,North Hollywood,91607,562,860,2027
Pizza Hut,4830 W Rosecrans Ave,4830,W Rosecrans Ave,Hawthorne,90250,951,427,8013
Jack in the Box,484 N Moorpark Rd,484,N Moorpark Rd,Thousand Oaks,91326,323,223,6094
Yoshinoya Beef Bowl,4846 W Pico Blvd,4846,W Pico Blvd,Los Angeles,90019,323,269,3575
Carl's Jr,485 N Rosemead Blvd,485,N Rosemead Blvd,Pasadena,91107,818,763,5240
Jack in the Box,4911 Torrance Blvd,4911,Torrance Blvd,Torrance,90503,310,479,0462
Kentucky Fried Chicken,4917 Bellflower Blvd,4917,Bellflower Blvd,Lakewood,90713,626,334,4015
Burger King,4918 Sunset Blvd,4918,Sunset Blvd,Los Angeles,90019,310,649,2146
Burger King,4918 Sunset Blvd,4918,Sunset Blvd,Los Angeles,90027,818,789,6876
Subway,4949 W Slauson Ave,4949,W Slauson Ave,Los Angeles,90056,323,231,4200
El Pollo Loco,4954 W Century Blvd,4954,W Century Blvd,Inglewood,90304,626,912,8111
Burger King,4959 Eagle Rock Blvd,4959,Eagle Rock Blvd,Los Angeles,90041,323,846,9404
Jack in the Box,4965 Huntington Dr,4965,Huntington Dr,Los Angeles,90032,323,724,3462
Pizza Hut,50 Peninsula Center,50,Peninsula Center,Rolling Hills Estates,90274,323,221,3100
Subway,500 N Azusa Ave,500,N Azusa Ave,West Covina,91791,310,513,9600
Tam's Burgers,500 W Manchester Ave,500,W Manchester Ave,Los Angeles,90044,818,437,0039
El Pollo Loco,5001 Wilshire Blvd,5001,Wilshire Blvd,Los Angeles,90036,323,256,1938
Domino's Pizza,501 W Willow St,501,W Willow St,Long Beach,90806,818,224,3300
Jack in the Box,5016 El Segundo Blvd,5016,El Segundo Blvd,Hawthorne,90250,818,285,2160
McDonald's,5020 N Long Beach Blvd,5020,N Long Beach Blvd,Long Beach,90805,562,988,1600
Tam's Burgers,5023 S Central Ave,5023,S Central Ave,Los Angeles,90011,323,233,1320
El Pollo Loco,503 S Alvarado St,503,S Alvarado St,Los Angeles,90057,310,645,2491
Subway,5037 W Avenue N,5037,W Avenue N,Lancaster,93536,562,281,9099
Pizza Hut,504 S Vincent Ave,504,S Vincent Ave,West Covina,91790,310,513,1700
Carl's Jr,505 W Las Tunas Dr,505,W Las Tunas Dr,San Gabriel,91776,818,700,8584
Jack in the Box,506 Workman Mill Rd,506,Workman Mill Rd,La Puente,91746,323,298,0653
Jack in the Box,5075 E Whittier Blvd,5075,E Whittier Blvd,Los Angeles,90022,562,496,4565
Yoshinoya Beef Bowl,5076 Rosemead Blvd,5076,Rosemead Blvd,Pico Rivera,90660,213,384,1557
Subway,508 W 7th St,508,W 7th St,Los Angeles,90014,626,446,5375
Subway,509 E Palmdale Blvd,509,E Palmdale Blvd,Palmdale,93550,818,713,0123
Jack in the Box,5101 Jefferson Blvd,5101,Jefferson Blvd,Los Angeles,90016,818,885,8261
Pizza Hut,5101 Venice Blvd,5101,Venice Blvd,Los Angeles,90019,562,809,5000
Burger King,5109 Van Nuys Blvd,5109,Van Nuys Blvd,Sherman Oaks,91403,213,386,7698
Pizza Hut,5130 S Huntington Dr,5130,S Huntington Dr,Los Angeles,90032,626,792,2800
Wienerschnitzel,5135 Laurel Canyon Blvd,5135,Laurel Canyon Blvd,North Hollywood,91607,661,252,7921
Jack in the Box,5150 Atlantic Ave,5150,Atlantic Ave,Long Beach,90805,626,330,3608
Everytable,5151 State University Dr,5151,State University Dr,Los Angeles,90032,213,318,3836
Jack in the Box,516 N Beaudry Ave,516,N Beaudry Ave,Los Angeles,90012,310,644,0027
El Pollo Loco,5160 E Olympic Blvd,5160,E Olympic Blvd,Los Angeles,90022,818,831,4044
Domino's Pizza,5166 Lankershim Blvd,5166,Lankershim Blvd,North Hollywood,91601,310,546,5833
Carl's Jr,5166 Vineland Ave,5166,Vineland Ave,North Hollywood,91601,818,988,2312
Kentucky Fried Chicken,518 E Las Tunas Dr,518,E Las Tunas Dr,San Gabriel,91776,909,593,2568
Chinatown's Express,519 W Manchester Ave,519,W Manchester Ave,Los Angeles,90044,323,778,8278
Domino's Pizza,520 W Avenue 26,520,W Avenue 26,Los Angeles,90065,310,219,0008
Jack in the Box,5201 Wilshire Blvd,5201,Wilshire Blvd,Los Angeles,90036,323,227,1710
J Looney's,5204 Orange Ave,5204,Orange Ave,Long Beach,90805,562,612,3355
El Pollo Loco,521 N First St,521,N First St,Burbank,91502,562,924,6918
Pizza Hut,5212 Whitsett Ave,5212,Whitsett Ave,North Hollywood,91607,626,334,8855
Pizza Hut,5213 Whittier Blvd,5213,Whittier Blvd,Los Angeles,90022,310,207,7748
El Salsabor,522 S Lorena St,522,S Lorena St,Los Angeles,90063,323,266,1400
Kentucky Fried Chicken,5220 W Centinela Ave,5220,W Centinela Ave,Los Angeles,90045,213,386,7222
Burger King,5228 W Centinela Ave,5228,W Centinela Ave,Los Angeles,90045,661,722,0340
Covina Burgers,523 E San Bernardino Rd,523,E San Bernardino Rd,Covina,91723,626,332,2102
El Pollo Loco,5300 Centinela Ave,5300,Centinela Ave,Los Angeles,90045,818,774,1173
BBQ King,5309 S Vermont Ave,5309,S Vermont Ave,Los Angeles,90037,323,750,1064
El Pollo Loco,5319 Sunset Blvd,5319,Sunset Blvd,Los Angeles,90027,626,309,9555
Subway,5339 S Centinala Ave,5339,S Centinala Ave,Los Angeles,90045,626,334,2477
Tam's Burgers,5353 Atlantic Ave,5353,Atlantic Ave,Long Beach,90805,562,423,6000
Subway,5353 Wilshire Blvd,5353,Wilshire Blvd,Los Angeles,90036,661,718,3444
El Pollo Loco,5386 Cherry Ave,5386,Cherry Ave,Long Beach,90805,213,380,7721
Yoshinoya Beef Bowl,539 E Florence Ave,539,E Florence Ave,Los Angeles,90003,626,570,9133
Jack in the Box,5400 Sepulveda Blvd,5400,Sepulveda Blvd,Culver City,90230,562,862,1958
Domino's Pizza,5401 S Figueroa St,5401,S Figueroa St,Los Angeles,90037,626,960,5002
Subway,5416 Norwalk Blvd,5416,Norwalk Blvd,Whittier,90601,310,470,8445
Granny's Kitchen,5440 S Central Ave,5440,S Central Ave,Los Angeles,90011,323,231,2141
Primo Burgers,545 E Palmdale Blvd,545,E Palmdale Blvd,Palmdale,93550,661,945,7538
Kentucky Fried Chicken,545 E Sepulveda Blvd,545,E Sepulveda Blvd,Carson,90745,310,638,8559
Denny's,546 Baseline Rd,546,Baseline Rd,Glendora,91740,626,914,1212
Denny's,548 W Arrow Hwy,548,W Arrow Hwy,San Dimas,91773,909,599,0502
Yoshinoya Beef Bowl,5495-H Sepulveda Blvd,5495,Sepulveda Blvd,Culver City,90230,323,733,3317
Carl's Jr,551 N Hollywood Way,551,N Hollywood Way,Burbank,91505,909,392,7343
Pizza Hut,551 N Maclay Ave,551,N Maclay Ave,San Fernando,91340,626,303,5888
Subway,5517 1/2 Del Amo Blvd,5517,01/02/22 Del Amo Blvd,Lakewood,90713,310,450,7250
El Pollo Loco,5529 S Sepulveda Blvd,5529,S Sepulveda Blvd,Culver City,90230,213,380,2772
Burger King,5533 E Washington Blvd,5533,E Washington Blvd,Commerce,90040,818,703,1419
Subway,5536 Whittier Blvd,5536,Whittier Blvd,Commerce,90022,626,937,6888
Domino's Pizza,5538 Del Amo Blvd,5538,Del Amo Blvd,Lakewood,90713,562,864,9951
Pollo Campero,5545 W Sunset Blvd,5545,W Sunset Blvd,Hollywood,90028,213,389,3751
Jack in the Box,5555 E Washington Blvd,5555,E Washington Blvd,Los Angeles,90040,310,456,8943
Carl's Jr,5575 Woodman Ave,5575,Woodman Ave,Van Nuys,91401,626,573,8480
Subway,5593 E Huntington Dr,5593,E Huntington Dr,Los Angeles,90032,626,285,7280
Jack in the Box,5601 E Pacific Coast Hwy,5601,E Pacific Coast Hwy,Long Beach,90804,323,722,0211
Yoshinoya Beef Bowl,5605 Woodruff Ave,5605,Woodruff Ave,Lakewood,90713,213,382,0184
Burger King,5609 Sunset Blvd,5609,Sunset Blvd,Los Angeles,90028,818,892,5411
Carl's Jr,5633 Whittier Blvd,5633,Whittier Blvd,Los Angeles,90022,626,289,9323
Jack in the Box,564 E Palmdale Blvd,564,E Palmdale Blvd,Palmdale,93550,562,407,2069
Yummy Donuts and Top Burger,5656 Santa Monica Blvd,5656,Santa Monica Blvd,Los Angeles,90038,323,856,9978
Yoshinoya Beef Bowl,5656 W Manchester Ave,5656,W Manchester Ave,Los Angeles,90045,310,539,8319
Subway,5699 Woodruff Ave,5699,Woodruff Ave,Lakewood,90713,661,723,3770
Jack in the Box,570 W Avenue P,570,W Avenue P,Palmdale,93551,562,423,2164
Subway,5701 S Central Ave,5701,S Central Ave,Los Angeles,90011,310,444,1813
Subway,5714 Babbit Ave,5714,Babbit Ave,Encino,91316,323,256,0466
Kentucky Fried Chicken,5720 S Vermont Ave,5720,S Vermont Ave,Los Angeles,90037,323,245,4700
Yoshinoya Beef Bowl,5721 Rosemead Blvd,5721,Rosemead Blvd,Temple City,91780,626,918,1482
Carl's Jr,573 N Azusa Ave,573,N Azusa Ave,Covina,91722,310,632,6359
Pizza Hut,5736 Gage Ave,5736,Gage Ave,Bell Gardens,90201,626,369,4433
El Pollo Loco,5740 Imperial Hwy,5740,Imperial Hwy,South Gate,90280,310,376,4143
Domino's Pizza,5742 Olympic Blvd,5742,Olympic Blvd,Commerce,90040,909,594,5533
Jack in the Box,5747 Lakewood Blvd,5747,Lakewood Blvd,Lakewood,90712,562,494,6740
Wendy's,5788 N Linder Canyon Rd,5788,N Linder Canyon Rd,West Lake Villa,91362,818,879,9416
Pacific Dining - LA Valley College,5800 Fulton Ave,5800,Fulton Ave,Valley Glen,91401,818,947,2600
El Pollo Loco,5800 S Vermont Ave,5800,S Vermont Ave,Los Angeles,90011,626,405,1032
El Pollo Loco,5800 S Vermont Ave,5800,S Vermont Ave,Los Angeles,90044,323,771,1199
Subway,5805 N Figueroa St,5805,N Figueroa St,Los Angeles,90042,661,729,5564
Fatburger,5817 Crenshaw Ave,5817,Crenshaw Ave,Los Angeles,90043,323,232,2000
Pizza Hut,5839 York Blvd,5839,York Blvd,Los Angeles,90042,323,221,2700
Subway,5841-D Firestone Blvd,5841,Firestone Blvd,South Gate,90280,310,966,1650
Jack in the Box,5858 Del Amo Blvd,5858,Del Amo Blvd,Lakewood,90713,562,496,0741
Subway,5864 S Vermont Ave,5864,S Vermont Ave,Los Angeles,90044,562,420,9303
Fatburger,5867 S Central Ave,5867,S Central Ave,Los Angeles,90001,323,291,7779
Yoshinoya Beef Bowl,590 E Willow St,590,E Willow St,Long Beach,90806,562,929,3772
Pizza Hut,5917 South St,5917,South St,Lakewood,90713,323,726,2700
Kentucky Fried Chicken,5925 W 3rd St,5925,W 3rd St,Los Angeles,90036,310,547,3383
Casa Sanchez,5929 Cherry Ave,5929,Cherry Ave,Long Beach,90805,562,423,7386
Pizza Hut,5948 Lankershim Blvd,5948,Lankershim Blvd,North Hollywood,91601,818,998,4700
Jordan's Hot Dogs,5960 Crenshaw Blvd,5960,Crenshaw Blvd,Los Angeles,90043,323,299,3647
Louis Place Burgers,5990 Atlantic Ave,5990,Atlantic Ave,Long Beach,90805,562,423,3511
Jack in the Box,600 S Gaffey St,600,S Gaffey St,South Gate,90280,818,347,8353
Burger King,6000 Sepulveda Blvd,6000,Sepulveda Blvd,Culver City,90230,562,401,0333
Subway,6006 Lankershim Blvd,6006,Lankershim Blvd,North Hollywood,91606,818,366,2422
Sam's Burgers & Fast Food,6007 E Florence Ave,6007,E Florence Ave,Bell Gardens,90201,323,560,4011
El Pollo Loco,6009 S Figueroa St,6009,S Figueroa St,Los Angeles,90042,562,437,5689
Tom's Jr,601 E Century Blvd,601,E Century Blvd,Los Angeles,90002,323,242,1100
Domino's Pizza,602 E Palmdale Blvd,602,E Palmdale Blvd,Palmdale,93550,818,769,3733
Jack in the Box,6025 Long Beach Blvd,6025,Long Beach Blvd,Long Beach,90805,818,885,8149
Pizza Hut,6048 Pacific Blvd,6048,Pacific Blvd,Huntington Park,90255,818,343,7070
Burger King,6060 Lankershim Blvd,6060,Lankershim Blvd,North Hollywood,91606,310,450,1227
Sana Food,608 E 4th St,608,E 4th St,Los Angeles,90013,213,613,1122
Louisiana Famous Fried Chicken,6090 Long Beach Blvd,6090,Long Beach Blvd,Long Beach,90805,323,541,0533
Subway,610 S Rampart Blvd,610,S Rampart Blvd,Los Angeles,90057,323,634,1074
Subway,611 E Imperial Hwy,611,E Imperial Hwy,Los Angeles,90059,626,446,3120
Pizza Hut,611 E Imperial Hwy,611,E Imperial Hwy,Los Angeles,90059,818,998,5600
Subway,6115 Santa Monica Blvd,6115,Santa Monica Blvd,Los Angeles,90038,661,940,1881
Subway,6130 E Washington Blvd,6130,E Washington Blvd,Commerce,90040,562,633,3377
Burger King,6155 York Blvd,6155,York Blvd,Los Angeles,90042,818,677,2669
Dominguez Pizza,6176 Atlantic Ave,6176,Atlantic Ave,Long Beach,90805,562,256,1600
Don's Fish and Chicken,6178 Long Beach Blvd,6178,Long Beach Blvd,Long Beach,90805,562,423,7400
Wendy's,6181 Sepulveda Blvd,6181,Sepulveda Blvd,Van Nuys,91411,818,700,1578
Kentucky Fried Chicken,619 W Carson St,619,W Carson St,Carson,90745,562,698,4105
Arnold's Burgers,6191 Atlantic Ave,6191,Atlantic Ave,Long Beach,90805,562,728,0471
Pacific Dining - LA Pierce College,6201 Winnetka Ave,6201,Winnetka Ave,Woodland Hills,91371,818,719,6404
Carl's Jr,6202 Laurel Canyon Blvd,6202,Laurel Canyon Blvd,North Hollywood,91606,626,334,5340
El Pollo Loco,621 N Azusa Ave,621,N Azusa Ave,Covina,91722,323,751,1556
Yoshinoya Beef Bowl,6238 Santa Monica Blvd,6238,Santa Monica Blvd,Los Angeles,90038,323,231,4378
Subway,6238 Wilshire Blvd,6238,Wilshire Blvd,Los Angeles,90048,818,523,0912
Kentucky Fried Chicken,624 Lorena St,624,Lorena St,Los Angeles,90022,661,940,5098
Kentucky Fried Chicken,624 S Lorena St,624,S Lorena St,Los Angeles,90023,818,357,5113
Jack in the Box,6250 York Blvd,6250,York Blvd,Los Angeles,90042,818,363,9013
Tom's Burger,626 E Sepulveda Blvd,626,E Sepulveda Blvd,Carson,90745,310,834,3475
El Pollo Loco,630 N Pacific Coast Hwy,630,N Pacific Coast Hwy,El Segundo,90245,818,887,0346
Subway,630 W 6th St,630,W 6th St,Los Angeles,90017,818,912,1900
Pacific Restaurant,6300 Pacific Blvd,6300,Pacific Blvd,Huntington Park,90255,323,587,0691
Jack in the Box,6300 W Santa Monica Blvd,6300,W Santa Monica Blvd,Los Angeles,90038,818,779,1350
El Pollo Loco,631 Long Beach Blvd,631,Long Beach Blvd,Long Beach,90802,626,448,6767
El Pollo Loco,631 Long Beach Blvd,631,Long Beach Blvd,Long Beach,90813,323,846,8488
Carl's Jr,6310 Platt Ave,6310,Platt Ave,Woodland Hills,91367,818,236,3804
Pizza Hut,6312 W 89th St,6312,W 89th St,Los Angeles,90045,562,862,0727
Domino's Pizza,633 E University Dr,633,E University Dr,Carson,90746,310,677,1900
Subway,6340 San Fernando Rd,6340,San Fernando Rd,Glendale,91201,310,737,7811
Subway,6345A E Spring St,6345,E Spring St,Long Beach,90808,213,748,1779
McDonald's,6350 E Washington Blvd,6350,E Washington Blvd,Los Angeles,90040,323,560,1660
Jack in the Box,6350 Florence Ave,6350,Florence Ave,Bell Gardens,90201,626,401,9730
Jack in the Box,6351 Sepulveda Blvd,6351,Sepulveda Blvd,Van Nuys,91411,562,803,7900
Lusy's Mediterranean Cuisine,6357 Woodman Ave,6357,Woodman Ave,Valley Glen,91401,818,997,4330
La Pizza Loca,640 S Rampart Ave,640,S Rampart Ave,Los Angeles,90057,323,263,9949
El Pollo Loco,6400 Lankershim Blvd,6400,Lankershim Blvd,North Hollywood,91606,626,960,8861
Subway,6401 Platt Ave,6401,Platt Ave,West Hills,91307,323,851,5501
Perry Burger,6402 E Florence Ave,6402,E Florence Ave,Bell,90201,562,928,2466
McDonald's,6407 E Spring St,6407,E Spring St,Long Beach,90808,310,324,8619
Jack in the Box,6407 W Sunset Blvd,6407,W Sunset Blvd,Los Angeles,90028,562,496,0540
El Pollo Loco,6411 N Sepulveda Blvd,6411,N Sepulveda Blvd,Van Nuys,91411,323,464,0860
Subway,6412 Del Amo Blvd,6412,Del Amo Blvd,Lakewood,90713,323,560,7070
Jack in the Box,6416 Woodman Ave,6416,Woodman Ave,Van Nuys,91401,562,426,3069
Yoshinoya Beef Bowl,642 S Alvarado St,642,S Alvarado St,Los Angeles,90057,818,340,2103
Carl's Jr,6457 Sepulveda Blvd,6457,Sepulveda Blvd,Van Nuys,91411,626,795,7633
Tom's Burger,6484 E Florence Ave,6484,E Florence Ave,Bell Gardens,90201,562,927,3984
Pizza Hut,650 S Gaffey St,650,S Gaffey St,San Pedro,90731,818,348,6900
Jack in the Box,652 Atlantic Ave,652,Atlantic Ave,Long Beach,90802,323,293,0034
Papa John's,6520 Crenshaw Blvd,6520,Crenshaw Blvd,Los Angeles,90043,323,707,7918
John's Burgers,6537 Whittier Blvd,6537,Whittier Blvd,Los Angeles,90022,323,721,1524
Vallarta Supermarket,655 N Fair Oaks Ave,655,N Fair Oaks Ave,Pasadena,91103,661,208,4276
Jack in the Box,6551 Lankershim Blvd,6551,Lankershim Blvd,North Hollywood,91606,818,363,9982
El Pollo Loco,6560 Van Nuys Blvd,6560,Van Nuys Blvd,Van Nuys,91401,213,353,0084
Yoshinoya Beef Bowl,6562-64 Van Nuys Blvd,6562,Van Nuys Blvd,Van Nuys,91401,626,810,3764
China Beauty Food Express,6588 Atlantic Ave,6588,Atlantic Ave,Long Beach,90805,562,984,6388
Subway,6590 Atlantic Ave,6590,Atlantic Ave,Long Beach,90805,213,477,8411
Subway,6590 Atlantic Ave,6590,Atlantic Ave,Long Beach,90815,323,465,1025
Margarita's Place,660 S Main St,660,S Main St,Los Angeles,90014,213,622,2663
Tam's Burgers,6620 S Central Ave,6620,S Central Ave,Los Angeles,90001,323,583,7076
John's Drive-in Hamburger,6625 Santa Fe Ave,6625,Santa Fe Ave,Huntington Park,90255,323,589,8988
Pizza Hut,6660 W Sunset Blvd,6660,W Sunset Blvd,Los Angeles,90028,562,425,8887
Mama's International Tamales,6700 S Central Ave,6700,S Central Ave,Los Angeles,90001,323,583,8294
Wing Stop,6734 Sepulveda Blvd,6734,Sepulveda Blvd,Van Nuys,91411,818,786,9464
Pronto Pizza Man,6740 Reseda Blvd,6740,Reseda Blvd,Reseda,91335,818,343,9200
Jack in the Box,6750 Rosemead Blvd,6750,Rosemead Blvd,Pico Rivera,90660,323,971,2114
Subway,6784 Cherry Ave,6784,Cherry Ave,Long Beach,90805,562,901,4400
Jack in the Box,6800 De Soto Ave,6800,De Soto Ave,Canoga Park,91303,310,325,4552
Yoshinoya Beef Bowl,6800 Reseda Blvd,6800,Reseda Blvd,Reseda,91335,323,766,9220
Jack in the Box,6820 Reseda Blvd,6820,Reseda Blvd,Reseda,91335,818,345,6492
Jack in the Box,6847 Van Nuys Blvd,6847,Van Nuys Blvd,Van Nuys,91405,213,252,8209
Arby's,6850 Reseda Blvd,6850,Reseda Blvd,Reseda,91335,818,697,5888
El Pollo Loco,6929 Eastern Ave,6929,Eastern Ave,Bell Gardens,90201,626,584,0261
Everytable,700 S Flower St,700,S Flower St,Los Angeles,90017,310,620,8397
Mama Tacos,700 S San Pedro St Ste 1,700,S San Pedro St Ste 1,Los Angeles,90014,323,935,8377
Pizza Hut,7000 Atlantic Ave,7000,Atlantic Ave,Bell,90201,818,831,0055
Jack in the Box,701 E Rosecrans Ave,701,E Rosecrans Ave,Compton,90221,562,728,4499
Subway,701 W Torrance Blvd,701,W Torrance Blvd,Torrance,90502,818,766,9991
Subway,704 W 1st St,704,W 1st St,Los Angeles,90012,323,780,4740
Jack in the Box,706 W Beverly Blvd,706,W Beverly Blvd,Montebello,90640,818,224,3460
Yoshinoya Beef Bowl,707 E Huntington Dr,707,E Huntington Dr,Monrovia,91016,818,996,8365
El Pollo Loco,711 Fair Oaks Ave,711,Fair Oaks Ave,South Pasadena,91030,310,532,0060
Subway,712 S Los Angeles St,712,S Los Angeles St,Los Angeles,90014,562,908,3082
El Pollo Loco,712 W Beverly Blvd,712,W Beverly Blvd,Montebello,90640,310,830,3491
Jack in the Box,7120 S Broadway,7120,S Broadway,Los Angeles,90003,310,397,4845
Wendy's,7135 W Sunset Blvd,7135,W Sunset Blvd,Los Angeles,90046,323,876,1925
Pizza Hut,7136 Van Nuys Blvd,7136,Van Nuys Blvd,Van Nuys,91405,213,388,6111
Sam's Tacos,715 S Soto St,715,S Soto St,Los Angeles,90023,323,263,7858
Pizza Hut,718 S Los Angeles St,718,S Los Angeles St,Los Angeles,90014,818,343,3600
Jack in the Box,7201 S Western Ave,7201,S Western Ave,Los Angeles,90047,323,582,6622
El Pollo Loco,7211 Winnetka Ave,7211,Winnetka Ave,Canoga Park,91306,818,785,8008
Pizza Hut,7229 S Figueroa St,7229,S Figueroa St,Los Angeles,90003,310,399,6767
Domino's Pizza,723 S Central Ave,723,S Central Ave,Glendale,91204,818,841,8433
Domino's Pizza,723 S Central Ave,723,S Central Ave,Glendale,91205,818,769,2800
Jack in the Box,7264 Topanga Canyon Blvd,7264,Topanga Canyon Blvd,Canoga Park,91303,310,450,2927
El Pollo Loco,729 W Las Tunas Dr,729,W Las Tunas Dr,San Gabriel,91776,626,358,5005
Subway,730 S Pacific Coast Hwy,730,S Pacific Coast Hwy,Redondo Beach,90277,661,533,0300
Yoshinoya Beef Bowl,7300 Canyon Blvd,7300,Canyon Blvd,Canoga Park,91303,323,871,0877
Bobo's Hamburgers,7300 Pacific Blvd,7300,Pacific Blvd,Huntington Park,90255,323,249,6711
Subway,7300 Topanga Canyon Blvd,7300,Topanga Canyon Blvd,Canoga Park,91303,626,919,5800
Subway,733 N Naomi Ave,733,N Naomi Ave,Arcadia,91007,323,223,8923
Louisiana Famous Fried Chicken,734 W Alondra Blvd,734,W Alondra Blvd,Compton,90220,310,764,2110
Subway,7353 Melrose Ave,7353,Melrose Ave,Los Angeles,90046,323,731,3592
McDonald's,7357 Alondra Blvd,7357,Alondra Blvd,Paramount,90723,562,630,1444
Wendy's,7360 La Tijera Blvd,7360,La Tijera Blvd,Los Angeles,90045,818,894,0659
Domino's Pizza,7433 Florence Ave,7433,Florence Ave,Downey,90240,818,981,5811
PizzaRev,748 W Rancho Vista Blvd,748,W Rancho Vista Blvd,Palmdale,93551,661,265,0277
Subway,750 N Vine St,750,N Vine St,Los Angeles,90038,323,222,6262
El Pollo Loco,750 S Grand Ave,750,S Grand Ave,Glendora,91740,661,294,5221
J & J BBQ Fish,751 Indian Hill Blvd,751,Indian Hill Blvd,Pomona,91767,909,865,6700
El Pollo Loco,7519 S Atlantic Ave,7519,S Atlantic Ave,Cudahy,90201,909,594,8656
Del Taco,7545 Balboa Blvd,7545,Balboa Blvd,Van Nuys,91406,818,361,9390
Vallarta Supermarket,757 S Workman St,757,S Workman St,San Fernando,91340,818,704,1717
Subway,760 E Arrow Hwy,760,E Arrow Hwy,Pomona,91767,323,296,0996
La Pizza Loca,7608 Vineland Ave,7608,Vineland Ave,Sun Valley,91352,213,381,6161
El Pollo Loco,7639 Garvey Ave,7639,Garvey Ave,Rosemead,91770,310,322,0808
Carl's Jr,7649 Van Nuys Blvd,7649,Van Nuys Blvd,Van Nuys,91401,818,343,0496
Carl's Jr,7649 Van Nuys Blvd,7649,Van Nuys Blvd,Van Nuys,91405,323,242,0011
Subway,77 N Maclay Ave,77,N Maclay Ave,San Fernando,91340,626,570,0900
Golden Ox,770 E Arrow Highway,770,E Arrow Highway,Pomona,91767,909,455,1112
Brother's BBQ,7725 Crenshaw Blvd,7725,Crenshaw Blvd,Los Angeles,90043,323,751,1050
The Best Burger,7730 S Western Ave,7730,S Western Ave,Los Angeles,90047,323,752,2205
McDonald's,7740 Firestone Blvd,7740,Firestone Blvd,Downey,90241,562,633,2755
Pizza Hut,777 S Arroyo Pkwy,777,S Arroyo Pkwy,Pasadena,91105,323,582,9200
Pizza Hut,7779 Garvey Ave,7779,Garvey Ave,Rosemead,91770,323,734,7713
Subway,7825 Beverly Blvd,7825,Beverly Blvd,Los Angeles,90036,323,913,0540
Domino's Pizza,7840 Imperial Hwy,7840,Imperial Hwy,Downey,90242,310,327,0444
El Pollo Loco,7851 Foothill Blvd,7851,Foothill Blvd,Sunland,91040,323,771,5544
D's Original Take Out Grill,7873 S Western Ave,7873,S Western Ave,Los Angeles,90047,323,971,3663
Vallarta Supermarket,7900 Imperial Hwy,7900,Imperial Hwy,Downey,90242,818,362,7577
Kentucky Fried Chicken,7905 Alondra Blvd,7905,Alondra Blvd,Paramount,90723,562,424,3861
Jack in the Box,7905 E Imperial Hwy,7905,E Imperial Hwy,Downey,90242,310,326,5225
Yoshinoya Beef Bowl,7910 Florence Ave,7910,Florence Ave,Downey,90240,323,467,8875
Jack in the Box,7930 Rosecrans Ave,7930,Rosecrans Ave,Paramount,90723,562,436,5728
Pizza Hut,7936 Florence Ave,7936,Florence Ave,Downey,90240,323,290,2290
Subrositas Pupusas,7950 Laurel Canyon Blvd,7950,Laurel Canyon Blvd,North Hollywood,91605,818,599,8934
Jack in the Box,7955 Vineland Ave,7955,Vineland Ave,Sun Valley,91352,626,337,1684
Burger King,7956 Lankershim Blvd,7956,Lankershim Blvd,North Hollywood,91605,323,737,2622
Wing Stop,80 E 4th St,80,E 4th St,Long Beach,90802,323,296,9464
El Pollo Loco,800 N Sepulveda Blvd,800,N Sepulveda Blvd,Manhattan Beach,90266,626,442,8682
Jack in the Box,801 E Spring St,801,E Spring St,Signal Hills,90755,661,285,7382
Subway,801-A S Flower St,801,S Flower St,Los Angeles,90017,310,675,3050
Pizza Hut,8023 Lankershim Blvd,8023,Lankershim Blvd,North Hollywood,91605,562,983,1177
Monster Burger,8025 S Avalon Blvd,8025,S Avalon Blvd,Los Angeles,90003,323,971,5009
McDonald's,8029 Atlantic Ave,8029,Atlantic Ave,Cudahy,90201,661,947,1321
Domino's Pizza,803 W Whittier Blvd,803,W Whittier Blvd,Montebello,90640,310,549,1600
Burger King,8030 Van Nuys Blvd,8030,Van Nuys Blvd,Panorama City,91402,323,667,1878
Subway,805 E Avenue K,805,E Avenue K,Lancaster,93535,818,508,1126
Jack in the Box,805 N Pacific Ave,805,N Pacific Ave,Glendale,91203,213,389,1023
Jack in the Box,805 W Manchester Ave,805,W Manchester Ave,Los Angeles,90044,661,942,0522
Kentucky Fried Chicken,806 E Alosta Ave,806,E Alosta Ave,Azusa,91702,661,948,8175
Subway,807 E Anaheim St,807,E Anaheim St,Long Beach,90813,310,978,4030
Carl's Jr,810 S Grand Ave,810,S Grand Ave,Glendora,91740,818,709,0689
Frosty King Burgers and Shakes,810 W Avenue I,810,W Avenue I,Lancaster,93534,718,213,1598
Jack in the Box,8140 Telegraph Rd,8140,Telegraph Rd,Downey,90240,626,334,7504
Vallarta Supermarket,815 E Avenue K,815,E Avenue K,Lancaster,93535,562,758,6464
Kentucky Fried Chicken,820 N Lake Ave,820,N Lake Ave,Pasadena,91104,626,443,1367
Jack in the Box,820 San Gabriel Blvd,820,San Gabriel Blvd,Rosemead,91770,310,608,1083
Wienerschnitzel,8201 E Rosecrans Ave,8201,E Rosecrans Ave,Paramount,90723,562,633,1192
Vallarta Supermarket,8201 Topanga Canyon Blvd,8201,Topanga Canyon Blvd,Canoga Park,91304,818,760,7021
Tom's Burger,8202 Long Beach Blvd,8202,Long Beach Blvd,South Gate,90280,323,581,1735
La Taquiza,8215 S Broadway,8215,S Broadway,Los Angeles,90003,562,862,9995
Wendy's,8232 De Soto Ave,8232,De Soto Ave,Canoga Park,91304,310,645,8396
El Pollo Loco,8239 Topanga Canyon Blvd,8239,Topanga Canyon Blvd,Canoga Park,91304,323,560,0758
Yoshinoya Beef Bowl,8267 S Sepulveda Blvd,8267,S Sepulveda Blvd,Panorama City,91402,818,556,5623
Jack in the Box,830 N Vermont Ave,830,N Vermont Ave,Los Angeles,90029,310,337,1945
El Pollo Loco,8301 Reseda Blvd,8301,Reseda Blvd,Northridge,91324,310,515,7562
Burger King,831 Sepulveda Blvd,831,Sepulveda Blvd,Torrance,90502,661,533,8036
Subway,8310 S Vermont Ave,8310,S Vermont Ave,Los Angeles,90044,323,463,6115
Domino's Pizza,8313 Laurel Canyon Blvd,8313,Laurel Canyon Blvd,Sun Valley,91352,310,533,1174
Domino's Pizza,8313 Laurel Canyon Blvd,8313,Laurel Canyon Blvd,Sun Valley,91403,310,473,6575
Jack in the Box,8322 Balboa Blvd,8322,Balboa Blvd,Northridge,91325,323,461,7605
Burger King,833 S Central Ave,833,S Central Ave,Los Angeles,90021,310,635,6345
Subway,8330 Painter Ave,8330,Painter Ave,Whittier,90602,714,932,8000
Wing Stop,8330 S Vermont Ave,8330,S Vermont Ave,Los Angeles,90044,323,293,9464
Pizza Hut,8337 Foothill Blvd,8337,Foothill Blvd,Sunland,91040,213,387,7711
Jack in the Box,835 W Carson St,835,W Carson St,Torrance,90502,562,860,6657
El Pollo Loco,8351 Sunland Blvd,8351,Sunland Blvd,Sun Valley,91352,310,539,9347
McDonald's,839 W Ave I,839,W Ave I,Lancaster,93534,562,988,1600
Yoshinoya Beef Bowl,8400 Sunland Blvd,8400,Sunland Blvd,Sun Valley,91352,818,252,0896
Jack in the Box,8405 Foothill Blvd,8405,Foothill Blvd,Sunland,91040,562,436,6850
Louisiana Famous Fried Chicken,8409 S 8th Ave,8409,S 8th Ave,Inglewood,90305,323,734,5974
Denny's Restaurant,8425 Pioneer Blvd,8425,Pioneer Blvd,Whittier,90606,562,695,4464
Jack in the Box,8433 Alondra Blvd,8433,Alondra Blvd,Paramount,90723,818,368,9941
Wendy's,8450 E Washington Blvd,8450,E Washington Blvd,Pico Rivera,90660,562,801,2521
Randolph's Smoke House,8472 S Central Ave,8472,S Central Ave,Los Angeles,90001,323,587,9698
Smokin' Telle's BBQ and Grill,8472 S Central Ave,8472,S Central Ave,Los Angeles,90001,323,996,5182
Kentucky Fried Chicken,8500 Lincoln Blvd,8500,Lincoln Blvd,Los Angeles,90045,818,361,6466
Burger King,8500 Reseda Blvd,8500,Reseda Blvd,Northridge,91324,323,467,6708
La Taquiza,8504 Firestone Blvd,8504,Firestone Blvd,Downey,90241,213,741,9795
Sam's Burgers,8505 E Telegraph Rd,8505,E Telegraph Rd,Pico Rivera,90660,562,869,1482
Pizza Hut,8509 Alondra Blvd,8509,Alondra Blvd,Paramount,90723,626,405,9100
Vallarta Supermarket,8510 Painter Ave,8510,Painter Ave,Whittier,90602,626,204,6960
Subway,8511 Venice Blvd,8511,Venice Blvd,Los Angeles,90034,626,351,5088
Kentucky Fried Chicken,8515 S Central Ave,8515,S Central Ave,Los Angeles,90001,562,929,1122
Popeyes Chicken,8527 Foothill Blvd,8527,Foothill Blvd,Sunland,91040,323,804,7536
Pacific Dining Los Angeles City College,855 N Vermont Ave,855,N Vermont Ave,Los Angeles,90029,323,953,4000
Domino's Pizza,855 W Avenue K,855,W Avenue K,Lancaster,93534,562,695,2600
Subway,860 E Carson St,860,E Carson St,Carson,90745,562,945,7827
Denny's,8600 E Whittier Blvd,8600,E Whittier Blvd,Pico Rivera,90660,562,948,3333
Subway,8600 S Central Ave,8600,S Central Ave,Los Angeles,90002,626,851,2404
Jack in the Box,8605 W Pico Blvd,8605,W Pico Blvd,Los Angeles,90035,626,851,9875
Domino's Pizza,865 Silver Spur Rd,865,Silver Spur Rd,Rolling Hills Estates,90274,661,948,0991
Church's Chicken,8658 Woodman Ave,8658,Woodman Ave,Arleta,91331,323,804,7536
Kentucky Fried Chicken,866 W Avenue L,866,W Avenue L,Lancaster,93534,909,519,3528
Domino's Pizza,8662 Lindley Ave,8662,Lindley Ave,Northridge,91324,818,349,0995
Jack in the Box,869 Washington Blvd,869,Washington Blvd,Montebello,90640,909,260,2122
Big Al's Pizza,8714 E Avenue T,8714,E Avenue T,Little Rock,93543,661,944,0827
Del Taco,880 N Wilcox Ave,880,N Wilcox Ave,Montebello,90640,626,442,2447
Kentucky Fried Chicken,8800 Sepulveda Blvd,8800,Sepulveda Blvd,North Hills,91343,310,320,7161
Subway,8809 Alondra Blvd,8809,Alondra Blvd,Paramount,90723,909,595,9375
Tibor's Gourmet,8809 Pearblossom Hwy,8809,Pearblossom Hwy,Littlerock,93543,661,878,8180
Wendy's,8810 Garfield Ave,8810,Garfield Ave,South Gate,90280,818,366,4561
Subway,8843 Rosecrans Ave,8843,Rosecrans Ave,Downey,90242,213,388,3040
R & J Southern Home Cook,8852 Rosecrans Ave,8852,Rosecrans Ave,Downey,90242,562,408,2960
Carl's Jr,8875 Glenoaks Blvd,8875,Glenoaks Blvd,Sun Valley,91352,626,962,2911
Monster Burger,8901 S Vermont Ave,8901,S Vermont Ave,Los Angeles,90044,323,920,4611
Jack in the Box,892 N Garfield Ave,892,N Garfield Ave,Montebello,90640,760,245,5073
Jack in the Box,8920 Atlantic Blvd,8920,Atlantic Blvd,South Gate,90280,949,689,2450
Pizza Hut,8947 W Pico Blvd,8947,W Pico Blvd,Los Angeles,90035,818,784,3400
Wing Stop,8985 Venice Blvd,8985,Venice Blvd,Los Angeles,90034,310,514,9464
El Zocalo,900 W Anaheim St,900,W Anaheim St,Wilmington,90744,310,637,9506
Pacific-Dining West Los Angeles College,9000 Overland Ave,9000,Overland Ave,Culver City,90230,310,287,4200
Burger King,9001 Apollo Way,9001,Apollo Way,Downey,90242,310,539,0180
Louisiana Famous Fried Chicken,901 E Artesia Blvd,901,E Artesia Blvd,Long Beach,90805,562,428,1071
Domino's Pizza,901 S La Brea Ave,901,S La Brea Ave,Inglewood,90301,562,920,8353
Jack in the Box,901 W Las Tunas Dr,901,W Las Tunas Dr,San Gabriel,91776,213,746,8827
Jack in the Box,9018 Woodman Ave,9018,Woodman Ave,Pacoima,91331,323,661,7225
Angelo's Burger,902 W Mission Blvd,902,W Mission Blvd,Pomona,91766,909,865,1480
Tam's Burgers,904 E Manchester Blvd,904,E Manchester Blvd,Los Angeles,90001,323,585,8267
Subway,909 S Central Ave,909,S Central Ave,Compton,90220,818,762,9700
Pizza Hut,909 W Pacific Coast Hwy,909,W Pacific Coast Hwy,Wilmington,90744,323,938,6111
Yoshinoya Beef Bowl,911 Knox St,911,Knox St,Torrance,90502,310,978,3074
Pizza Hut,9111 E Imperial Hwy,9111,E Imperial Hwy,Downey,90242,626,337,8200
Pizza Hut,9118 E Alondra Blvd,9118,E Alondra Blvd,Bellflower,90706,818,895,2478
Jack in the Box,912 N Azusa Ave,912,N Azusa Ave,Covina,91722,323,757,2677
El Pollo Loco,912 N Vermont Ave,912,N Vermont Ave,Los Angeles,90029,909,622,2275
Ceiba Restaurant,9131 S Vermont Ave,9131,S Vermont Ave,Los Angeles,90044,323,777,1117
Vallarta Supermarket,9134 Van Nuys Blvd,9134,Van Nuys Blvd,Panorama City,91402,323,980,4400
Carl's Jr,9160 Reseda Blvd,9160,Reseda Blvd,Northridge,91324,323,726,2700
Jack in the Box,9220 Flair Dr,9220,Flair Dr,El Monte,91731,323,645,7724
Subway,9238 E Slauson Ave,9238,E Slauson Ave,Pico Rivera,90660,323,292,8788
The Fishery,924 N Lake Ave,924,N Lake Ave,Pasadena,91104,626,791,3474
Pizza Hut,927 E Las Tunas Dr,927,E Las Tunas Dr,San Gabriel,91776,310,355,0300
Wok on the Wild Side,929 N La Brea Ave,929,N La Brea Ave,Inglewood,90302,310,671,8988
Pizza Hut,9336-8 E Whittier Blvd,9336,E Whittier Blvd,Pico Rivera,90660,310,265,1714
El Pollo Loco,9341 E Firestone Blvd,9341,E Firestone Blvd,Downey,90241,323,734,3373
Domino's Pizza,9353 E Alondra Blvd,9353,E Alondra Blvd,Bellflower,90706,562,408,1531
La Pizza Loca,937 W Holt Ave,937,W Holt Ave,Pomona,91768,562,453,4105
Jack in the Box,939 E Carson St,939,E Carson St,Carson,90745,661,251,0017
Kentucky Fried Chicken,939 N Hacienda Blvd,939,N Hacienda Blvd,La Puente,91744,562,943,1818
A & T Burgers,9401 S Avalon Blvd,9401,S Avalon Blvd,Los Angeles,90003,323,757,0710
Jack in the Box,9433 Reseda Blvd,9433,Reseda Blvd,Northridge,91324,562,929,6531
Subway,9441 Las Tunas Dr,9441,Las Tunas Dr,Temple City,91780,818,898,1917
McDonald's,9475 Firestone Blvd,9475,Firestone Blvd,Downey,90241,661,273,6322
Jack in the Box,9501 Imperial Hwy,9501,Imperial Hwy,Downey,90242,626,304,9356
Carl's Jr,9505 Sepulveda Blvd,9505,Sepulveda Blvd,North Hills,91343,562,695,2510
Jack in the Box,9511 Firestone Blvd,9511,Firestone Blvd,Culver City,90241,805,495,7874
Subway,9518 Sepulveda Blvd,9518,Sepulveda Blvd,North Hills,91343,626,960,0058
El Pollo Loco,9522 Sepulveda Blvd,9522,Sepulveda Blvd,North Hills,91343,323,462,2644
Domino's Pizza,955 N La Brea Ave,955,N La Brea Ave,Inglewood,90302,310,559,3030
Subway,961 S Long Beach Blvd,961,S Long Beach Blvd,Compton,90221,310,901,0702
La Pizza Loca,9792 Laurel Canyon Blvd,9792,Laurel Canyon Blvd,Pacoima,91331,323,563,1183
El Pollo Loco,9800 Laurel Canyon Blvd,9800,Laurel Canyon Blvd,Pacoima,91331,310,832,6157
Uncle Daddy's BBQ,9801 S Vermont Ave,9801,S Vermont Ave,Los Angeles,90044,323,305,1013
Carl's Jr,9803 E Las Tunas Dr,9803,E Las Tunas Dr,Temple City,91780,714,736,8900
Gardunos Sports Bar and Grill,9823 Valley Blvd,9823,Valley Blvd,El Monte,91731,626,448,4746
Flames Burgers,9847 Rush St,9847,Rush St,El Monte,91733,626,448,2316
Jack in the Box,9855 Mason Ave,9855,Mason Ave,Chatsworth,91311,818,988,4049
Tom's Jr,9856 Atlantic Ave,9856,Atlantic Ave,South Gate,90280,310,885,3636
El Pollo Loco,986 S Vermont Ave,986,S Vermont Ave,Los Angeles,90006,818,557,0683
Carl's Jr,9861 De Soto Ave,9861,De Soto Ave,Chatsworth,91311,626,351,1801
Domino's Pizza,9874 De Soto Ave,9874,De Soto Ave,Chatsworth,91311,661,272,0033
Tom's Jr,9901 Long Beach Blvd,9901,Long Beach Blvd,Lynwood,90262,310,885,3636
Jack in the Box,9965 Lower Azusa Rd,9965,Lower Azusa Rd,Temple City,91780,909,260,2122
El Pollo Loco,9974 Las Tunas Dr,9974,Las Tunas Dr,Temple City,91780,562,437,5689
